{
  "features": [
    {
      "geometry": {
        "coordinates": [
          [
            [
              14.229075885923933,
              55.22858700883818
            ],
            [
              14.234427707653547,
              55.1517927916441
            ],
            [
              14.36654795027871,
              55.12019074929979
            ],
            [
              14.493564607756047,
              55.16533752959791
            ],
            [
              14.488532479584647,
              55.24215412472524
            ],
            [
              14.356163739505739,
              55.27380174764254
            ],
            [
              14.229075885923933,
              55.22858700883818
            ],
            [
              14.229075885923933,
              55.22858700883818
            ]
          ]
        ],
        "type": "Polygon"
      },
      "properties": {
        "cell_id": "851f2a47fffffff",
        "count_high_score_unmatched": 1,
        "count_total": 2,
        "count_unmatched": 2,
        "mean_score": 0.79,
        "mean_uncertainty": 0.63,
        "pct_near_coast": 0,
        "recurrence_count": 14,
        "time_bin": "2025-11-05 16:00:00",
        "time_bins_total": 13,
        "time_bins_with_unmatched": 13
      },
      "type": "Feature"
    },
    {
      "geometry": {
        "coordinates": [
          [
            [
              14.625681453985813,
              55.13345312938518
            ],
            [
              14.630535202457379,
              55.05646783084315
            ],
            [
              14.762399575340403,
              55.024347111701225
            ],
            [
              14.889653513418402,
              55.06916540681956
            ],
            [
              14.885119727765701,
              55.14617195856445
            ],
            [
              14.753011796836006,
              55.1783391490446
            ],
            [
              14.625681453985813,
              55.13345312938518
            ],
            [
              14.625681453985813,
              55.13345312938518
            ]
          ]
        ],
        "type": "Polygon"
      },
      "properties": {
        "cell_id": "851f2a63fffffff",
        "count_high_score_unmatched": 1,
        "count_total": 1,
        "count_unmatched": 1,
        "mean_score": 1,
        "mean_uncertainty": 0.63,
        "pct_near_coast": 100,
        "recurrence_count": 1,
        "time_bin": "2025-10-12 16:00:00",
        "time_bins_total": 1,
        "time_bins_with_unmatched": 1
      },
      "type": "Feature"
    },
    {
      "geometry": {
        "coordinates": [
          [
            [
              14.229075885923933,
              55.22858700883818
            ],
            [
              14.234427707653547,
              55.1517927916441
            ],
            [
              14.36654795027871,
              55.12019074929979
            ],
            [
              14.493564607756047,
              55.16533752959791
            ],
            [
              14.488532479584647,
              55.24215412472524
            ],
            [
              14.356163739505739,
              55.27380174764254
            ],
            [
              14.229075885923933,
              55.22858700883818
            ],
            [
              14.229075885923933,
              55.22858700883818
            ]
          ]
        ],
        "type": "Polygon"
      },
      "properties": {
        "cell_id": "851f2a47fffffff",
        "count_high_score_unmatched": 1,
        "count_total": 1,
        "count_unmatched": 1,
        "mean_score": 1,
        "mean_uncertainty": 0.63,
        "pct_near_coast": 0,
        "recurrence_count": 14,
        "time_bin": "2025-10-07 05:00:00",
        "time_bins_total": 13,
        "time_bins_with_unmatched": 13
      },
      "type": "Feature"
    },
    {
      "geometry": {
        "coordinates": [
          [
            [
              14.488532479584647,
              55.24215412472524
            ],
            [
              14.493564607756047,
              55.16533752959791
            ],
            [
              14.625681453985813,
              55.13345312938518
            ],
            [
              14.753011796836006,
              55.1783391490446
            ],
            [
              14.748300339239407,
              55.25517731448213
            ],
            [
              14.615937617208752,
              55.28710807688227
            ],
            [
              14.488532479584647,
              55.24215412472524
            ],
            [
              14.488532479584647,
              55.24215412472524
            ]
          ]
        ],
        "type": "Polygon"
      },
      "properties": {
        "cell_id": "851f2a73fffffff",
        "count_high_score_unmatched": 1,
        "count_total": 1,
        "count_unmatched": 1,
        "mean_score": 1,
        "mean_uncertainty": 0.63,
        "pct_near_coast": 0,
        "recurrence_count": 4,
        "time_bin": "2025-09-20 05:00:00",
        "time_bins_total": 4,
        "time_bins_with_unmatched": 4
      },
      "type": "Feature"
    },
    {
      "geometry": {
        "coordinates": [
          [
            [
              14.229075885923933,
              55.22858700883818
            ],
            [
              14.234427707653547,
              55.1517927916441
            ],
            [
              14.36654795027871,
              55.12019074929979
            ],
            [
              14.493564607756047,
              55.16533752959791
            ],
            [
              14.488532479584647,
              55.24215412472524
            ],
            [
              14.356163739505739,
              55.27380174764254
            ],
            [
              14.229075885923933,
              55.22858700883818
            ],
            [
              14.229075885923933,
              55.22858700883818
            ]
          ]
        ],
        "type": "Polygon"
      },
      "properties": {
        "cell_id": "851f2a47fffffff",
        "count_high_score_unmatched": 1,
        "count_total": 1,
        "count_unmatched": 1,
        "mean_score": 1,
        "mean_uncertainty": 0.63,
        "pct_near_coast": 0,
        "recurrence_count": 14,
        "time_bin": "2025-08-20 05:00:00",
        "time_bins_total": 13,
        "time_bins_with_unmatched": 13
      },
      "type": "Feature"
    },
    {
      "geometry": {
        "coordinates": [
          [
            [
              14.229075885923933,
              55.22858700883818
            ],
            [
              14.234427707653547,
              55.1517927916441
            ],
            [
              14.36654795027871,
              55.12019074929979
            ],
            [
              14.493564607756047,
              55.16533752959791
            ],
            [
              14.488532479584647,
              55.24215412472524
            ],
            [
              14.356163739505739,
              55.27380174764254
            ],
            [
              14.229075885923933,
              55.22858700883818
            ],
            [
              14.229075885923933,
              55.22858700883818
            ]
          ]
        ],
        "type": "Polygon"
      },
      "properties": {
        "cell_id": "851f2a47fffffff",
        "count_high_score_unmatched": 1,
        "count_total": 1,
        "count_unmatched": 1,
        "mean_score": 1,
        "mean_uncertainty": 0.63,
        "pct_near_coast": 0,
        "recurrence_count": 14,
        "time_bin": "2025-07-25 16:00:00",
        "time_bins_total": 13,
        "time_bins_with_unmatched": 13
      },
      "type": "Feature"
    },
    {
      "geometry": {
        "coordinates": [
          [
            [
              14.229075885923933,
              55.22858700883818
            ],
            [
              14.234427707653547,
              55.1517927916441
            ],
            [
              14.36654795027871,
              55.12019074929979
            ],
            [
              14.493564607756047,
              55.16533752959791
            ],
            [
              14.488532479584647,
              55.24215412472524
            ],
            [
              14.356163739505739,
              55.27380174764254
            ],
            [
              14.229075885923933,
              55.22858700883818
            ],
            [
              14.229075885923933,
              55.22858700883818
            ]
          ]
        ],
        "type": "Polygon"
      },
      "properties": {
        "cell_id": "851f2a47fffffff",
        "count_high_score_unmatched": 1,
        "count_total": 1,
        "count_unmatched": 1,
        "mean_score": 1,
        "mean_uncertainty": 0.63,
        "pct_near_coast": 0,
        "recurrence_count": 14,
        "time_bin": "2025-01-11 05:00:00",
        "time_bins_total": 13,
        "time_bins_with_unmatched": 13
      },
      "type": "Feature"
    },
    {
      "geometry": {
        "coordinates": [
          [
            [
              14.488532479584647,
              55.24215412472524
            ],
            [
              14.493564607756047,
              55.16533752959791
            ],
            [
              14.625681453985813,
              55.13345312938518
            ],
            [
              14.753011796836006,
              55.1783391490446
            ],
            [
              14.748300339239407,
              55.25517731448213
            ],
            [
              14.615937617208752,
              55.28710807688227
            ],
            [
              14.488532479584647,
              55.24215412472524
            ],
            [
              14.488532479584647,
              55.24215412472524
            ]
          ]
        ],
        "type": "Polygon"
      },
      "properties": {
        "cell_id": "851f2a73fffffff",
        "count_high_score_unmatched": 1,
        "count_total": 1,
        "count_unmatched": 1,
        "mean_score": 0.88,
        "mean_uncertainty": 0.63,
        "pct_near_coast": 100,
        "recurrence_count": 4,
        "time_bin": "2025-10-05 16:00:00",
        "time_bins_total": 4,
        "time_bins_with_unmatched": 4
      },
      "type": "Feature"
    },
    {
      "geometry": {
        "coordinates": [
          [
            [
              14.488532479584647,
              55.24215412472524
            ],
            [
              14.493564607756047,
              55.16533752959791
            ],
            [
              14.625681453985813,
              55.13345312938518
            ],
            [
              14.753011796836006,
              55.1783391490446
            ],
            [
              14.748300339239407,
              55.25517731448213
            ],
            [
              14.615937617208752,
              55.28710807688227
            ],
            [
              14.488532479584647,
              55.24215412472524
            ],
            [
              14.488532479584647,
              55.24215412472524
            ]
          ]
        ],
        "type": "Polygon"
      },
      "properties": {
        "cell_id": "851f2a73fffffff",
        "count_high_score_unmatched": 1,
        "count_total": 1,
        "count_unmatched": 1,
        "mean_score": 0.88,
        "mean_uncertainty": 0.63,
        "pct_near_coast": 100,
        "recurrence_count": 4,
        "time_bin": "2025-09-11 16:00:00",
        "time_bins_total": 4,
        "time_bins_with_unmatched": 4
      },
      "type": "Feature"
    },
    {
      "geometry": {
        "coordinates": [
          [
            [
              14.488532479584647,
              55.24215412472524
            ],
            [
              14.493564607756047,
              55.16533752959791
            ],
            [
              14.625681453985813,
              55.13345312938518
            ],
            [
              14.753011796836006,
              55.1783391490446
            ],
            [
              14.748300339239407,
              55.25517731448213
            ],
            [
              14.615937617208752,
              55.28710807688227
            ],
            [
              14.488532479584647,
              55.24215412472524
            ],
            [
              14.488532479584647,
              55.24215412472524
            ]
          ]
        ],
        "type": "Polygon"
      },
      "properties": {
        "cell_id": "851f2a73fffffff",
        "count_high_score_unmatched": 1,
        "count_total": 1,
        "count_unmatched": 1,
        "mean_score": 0.88,
        "mean_uncertainty": 0.63,
        "pct_near_coast": 100,
        "recurrence_count": 4,
        "time_bin": "2025-08-08 05:00:00",
        "time_bins_total": 4,
        "time_bins_with_unmatched": 4
      },
      "type": "Feature"
    },
    {
      "geometry": {
        "coordinates": [
          [
            [
              14.36654795027871,
              55.12019074929979
            ],
            [
              14.37172070932158,
              55.0432275145601
            ],
            [
              14.503591369497354,
              55.01138881015212
            ],
            [
              14.630535202457379,
              55.05646783084315
            ],
            [
              14.625681453985813,
              55.13345312938518
            ],
            [
              14.493564607756047,
              55.16533752959791
            ],
            [
              14.36654795027871,
              55.12019074929979
            ],
            [
              14.36654795027871,
              55.12019074929979
            ]
          ]
        ],
        "type": "Polygon"
      },
      "properties": {
        "cell_id": "851f2a7bfffffff",
        "count_high_score_unmatched": 1,
        "count_total": 1,
        "count_unmatched": 1,
        "mean_score": 0.88,
        "mean_uncertainty": 0.63,
        "pct_near_coast": 100,
        "recurrence_count": 10,
        "time_bin": "2025-05-21 16:00:00",
        "time_bins_total": 10,
        "time_bins_with_unmatched": 10
      },
      "type": "Feature"
    },
    {
      "geometry": {
        "coordinates": [
          [
            [
              14.36654795027871,
              55.12019074929979
            ],
            [
              14.37172070932158,
              55.0432275145601
            ],
            [
              14.503591369497354,
              55.01138881015212
            ],
            [
              14.630535202457379,
              55.05646783084315
            ],
            [
              14.625681453985813,
              55.13345312938518
            ],
            [
              14.493564607756047,
              55.16533752959791
            ],
            [
              14.36654795027871,
              55.12019074929979
            ],
            [
              14.36654795027871,
              55.12019074929979
            ]
          ]
        ],
        "type": "Polygon"
      },
      "properties": {
        "cell_id": "851f2a7bfffffff",
        "count_high_score_unmatched": 1,
        "count_total": 1,
        "count_unmatched": 1,
        "mean_score": 0.88,
        "mean_uncertainty": 0.63,
        "pct_near_coast": 100,
        "recurrence_count": 10,
        "time_bin": "2025-05-09 16:00:00",
        "time_bins_total": 10,
        "time_bins_with_unmatched": 10
      },
      "type": "Feature"
    },
    {
      "geometry": {
        "coordinates": [
          [
            [
              14.36654795027871,
              55.12019074929979
            ],
            [
              14.37172070932158,
              55.0432275145601
            ],
            [
              14.503591369497354,
              55.01138881015212
            ],
            [
              14.630535202457379,
              55.05646783084315
            ],
            [
              14.625681453985813,
              55.13345312938518
            ],
            [
              14.493564607756047,
              55.16533752959791
            ],
            [
              14.36654795027871,
              55.12019074929979
            ],
            [
              14.36654795027871,
              55.12019074929979
            ]
          ]
        ],
        "type": "Polygon"
      },
      "properties": {
        "cell_id": "851f2a7bfffffff",
        "count_high_score_unmatched": 1,
        "count_total": 1,
        "count_unmatched": 1,
        "mean_score": 0.88,
        "mean_uncertainty": 0.63,
        "pct_near_coast": 100,
        "recurrence_count": 10,
        "time_bin": "2025-04-27 16:00:00",
        "time_bins_total": 10,
        "time_bins_with_unmatched": 10
      },
      "type": "Feature"
    },
    {
      "geometry": {
        "coordinates": [
          [
            [
              14.229075885923933,
              55.22858700883818
            ],
            [
              14.234427707653547,
              55.1517927916441
            ],
            [
              14.36654795027871,
              55.12019074929979
            ],
            [
              14.493564607756047,
              55.16533752959791
            ],
            [
              14.488532479584647,
              55.24215412472524
            ],
            [
              14.356163739505739,
              55.27380174764254
            ],
            [
              14.229075885923933,
              55.22858700883818
            ],
            [
              14.229075885923933,
              55.22858700883818
            ]
          ]
        ],
        "type": "Polygon"
      },
      "properties": {
        "cell_id": "851f2a47fffffff",
        "count_high_score_unmatched": 0,
        "count_total": 1,
        "count_unmatched": 1,
        "mean_score": 0.58,
        "mean_uncertainty": 0.63,
        "pct_near_coast": 0,
        "recurrence_count": 14,
        "time_bin": "2025-12-16 16:00:00",
        "time_bins_total": 13,
        "time_bins_with_unmatched": 13
      },
      "type": "Feature"
    },
    {
      "geometry": {
        "coordinates": [
          [
            [
              13.969940620510469,
              55.21447768340729
            ],
            [
              13.975611122422459,
              55.13770664823632
            ],
            [
              14.10772926204822,
              55.106386504125815
            ],
            [
              14.234427707653547,
              55.1517927916441
            ],
            [
              14.229075885923933,
              55.22858700883818
            ],
            [
              14.096706667784831,
              55.259951941569526
            ],
            [
              13.969940620510469,
              55.21447768340729
            ],
            [
              13.969940620510469,
              55.21447768340729
            ]
          ]
        ],
        "type": "Polygon"
      },
      "properties": {
        "cell_id": "851f2a43fffffff",
        "count_high_score_unmatched": 0,
        "count_total": 1,
        "count_unmatched": 1,
        "mean_score": 0.58,
        "mean_uncertainty": 0.63,
        "pct_near_coast": 0,
        "recurrence_count": 19,
        "time_bin": "2025-12-16 16:00:00",
        "time_bins_total": 16,
        "time_bins_with_unmatched": 16
      },
      "type": "Feature"
    },
    {
      "geometry": {
        "coordinates": [
          [
            [
              14.091174752447607,
              55.33657689126543
            ],
            [
              14.096706667784831,
              55.259951941569526
            ],
            [
              14.229075885923933,
              55.22858700883818
            ],
            [
              14.356163739505739,
              55.27380174764254
            ],
            [
              14.350952191351746,
              55.35044938765513
            ],
            [
              14.218332154857883,
              55.38185978441392
            ],
            [
              14.091174752447607,
              55.33657689126543
            ],
            [
              14.091174752447607,
              55.33657689126543
            ]
          ]
        ],
        "type": "Polygon"
      },
      "properties": {
        "cell_id": "851f2a57fffffff",
        "count_high_score_unmatched": 0,
        "count_total": 1,
        "count_unmatched": 1,
        "mean_score": 0.58,
        "mean_uncertainty": 0.63,
        "pct_near_coast": 0,
        "recurrence_count": 15,
        "time_bin": "2025-12-13 05:00:00",
        "time_bins_total": 15,
        "time_bins_with_unmatched": 15
      },
      "type": "Feature"
    },
    {
      "geometry": {
        "coordinates": [
          [
            [
              13.969940620510469,
              55.21447768340729
            ],
            [
              13.975611122422459,
              55.13770664823632
            ],
            [
              14.10772926204822,
              55.106386504125815
            ],
            [
              14.234427707653547,
              55.1517927916441
            ],
            [
              14.229075885923933,
              55.22858700883818
            ],
            [
              14.096706667784831,
              55.259951941569526
            ],
            [
              13.969940620510469,
              55.21447768340729
            ],
            [
              13.969940620510469,
              55.21447768340729
            ]
          ]
        ],
        "type": "Polygon"
      },
      "properties": {
        "cell_id": "851f2a43fffffff",
        "count_high_score_unmatched": 0,
        "count_total": 1,
        "count_unmatched": 1,
        "mean_score": 0.58,
        "mean_uncertainty": 0.63,
        "pct_near_coast": 0,
        "recurrence_count": 19,
        "time_bin": "2025-12-04 16:00:00",
        "time_bins_total": 16,
        "time_bins_with_unmatched": 16
      },
      "type": "Feature"
    },
    {
      "geometry": {
        "coordinates": [
          [
            [
              14.10772926204822,
              55.106386504125815
            ],
            [
              14.113220043106724,
              55.029446140322776
            ],
            [
              14.245091511718323,
              54.99788900786158
            ],
            [
              14.37172070932158,
              55.0432275145601
            ],
            [
              14.36654795027871,
              55.12019074929979
            ],
            [
              14.234427707653547,
              55.1517927916441
            ],
            [
              14.10772926204822,
              55.106386504125815
            ],
            [
              14.10772926204822,
              55.106386504125815
            ]
          ]
        ],
        "type": "Polygon"
      },
      "properties": {
        "cell_id": "851f2a4ffffffff",
        "count_high_score_unmatched": 0,
        "count_total": 1,
        "count_unmatched": 1,
        "mean_score": 0.58,
        "mean_uncertainty": 0.63,
        "pct_near_coast": 0,
        "recurrence_count": 6,
        "time_bin": "2025-11-22 16:00:00",
        "time_bins_total": 5,
        "time_bins_with_unmatched": 5
      },
      "type": "Feature"
    },
    {
      "geometry": {
        "coordinates": [
          [
            [
              14.229075885923933,
              55.22858700883818
            ],
            [
              14.234427707653547,
              55.1517927916441
            ],
            [
              14.36654795027871,
              55.12019074929979
            ],
            [
              14.493564607756047,
              55.16533752959791
            ],
            [
              14.488532479584647,
              55.24215412472524
            ],
            [
              14.356163739505739,
              55.27380174764254
            ],
            [
              14.229075885923933,
              55.22858700883818
            ],
            [
              14.229075885923933,
              55.22858700883818
            ]
          ]
        ],
        "type": "Polygon"
      },
      "properties": {
        "cell_id": "851f2a47fffffff",
        "count_high_score_unmatched": 0,
        "count_total": 1,
        "count_unmatched": 1,
        "mean_score": 0.58,
        "mean_uncertainty": 0.63,
        "pct_near_coast": 0,
        "recurrence_count": 14,
        "time_bin": "2025-11-22 16:00:00",
        "time_bins_total": 13,
        "time_bins_with_unmatched": 13
      },
      "type": "Feature"
    },
    {
      "geometry": {
        "coordinates": [
          [
            [
              14.229075885923933,
              55.22858700883818
            ],
            [
              14.234427707653547,
              55.1517927916441
            ],
            [
              14.36654795027871,
              55.12019074929979
            ],
            [
              14.493564607756047,
              55.16533752959791
            ],
            [
              14.488532479584647,
              55.24215412472524
            ],
            [
              14.356163739505739,
              55.27380174764254
            ],
            [
              14.229075885923933,
              55.22858700883818
            ],
            [
              14.229075885923933,
              55.22858700883818
            ]
          ]
        ],
        "type": "Polygon"
      },
      "properties": {
        "cell_id": "851f2a47fffffff",
        "count_high_score_unmatched": 0,
        "count_total": 1,
        "count_unmatched": 1,
        "mean_score": 0.58,
        "mean_uncertainty": 0.63,
        "pct_near_coast": 0,
        "recurrence_count": 14,
        "time_bin": "2025-11-10 16:00:00",
        "time_bins_total": 13,
        "time_bins_with_unmatched": 13
      },
      "type": "Feature"
    },
    {
      "geometry": {
        "coordinates": [
          [
            [
              13.969940620510469,
              55.21447768340729
            ],
            [
              13.975611122422459,
              55.13770664823632
            ],
            [
              14.10772926204822,
              55.106386504125815
            ],
            [
              14.234427707653547,
              55.1517927916441
            ],
            [
              14.229075885923933,
              55.22858700883818
            ],
            [
              14.096706667784831,
              55.259951941569526
            ],
            [
              13.969940620510469,
              55.21447768340729
            ],
            [
              13.969940620510469,
              55.21447768340729
            ]
          ]
        ],
        "type": "Polygon"
      },
      "properties": {
        "cell_id": "851f2a43fffffff",
        "count_high_score_unmatched": 0,
        "count_total": 1,
        "count_unmatched": 1,
        "mean_score": 0.58,
        "mean_uncertainty": 0.63,
        "pct_near_coast": 0,
        "recurrence_count": 19,
        "time_bin": "2025-11-07 05:00:00",
        "time_bins_total": 16,
        "time_bins_with_unmatched": 16
      },
      "type": "Feature"
    },
    {
      "geometry": {
        "coordinates": [
          [
            [
              14.36654795027871,
              55.12019074929979
            ],
            [
              14.37172070932158,
              55.0432275145601
            ],
            [
              14.503591369497354,
              55.01138881015212
            ],
            [
              14.630535202457379,
              55.05646783084315
            ],
            [
              14.625681453985813,
              55.13345312938518
            ],
            [
              14.493564607756047,
              55.16533752959791
            ],
            [
              14.36654795027871,
              55.12019074929979
            ],
            [
              14.36654795027871,
              55.12019074929979
            ]
          ]
        ],
        "type": "Polygon"
      },
      "properties": {
        "cell_id": "851f2a7bfffffff",
        "count_high_score_unmatched": 0,
        "count_total": 1,
        "count_unmatched": 1,
        "mean_score": 0.58,
        "mean_uncertainty": 0.63,
        "pct_near_coast": 0,
        "recurrence_count": 10,
        "time_bin": "2025-11-07 05:00:00",
        "time_bins_total": 10,
        "time_bins_with_unmatched": 10
      },
      "type": "Feature"
    },
    {
      "geometry": {
        "coordinates": [
          [
            [
              13.969940620510469,
              55.21447768340729
            ],
            [
              13.975611122422459,
              55.13770664823632
            ],
            [
              14.10772926204822,
              55.106386504125815
            ],
            [
              14.234427707653547,
              55.1517927916441
            ],
            [
              14.229075885923933,
              55.22858700883818
            ],
            [
              14.096706667784831,
              55.259951941569526
            ],
            [
              13.969940620510469,
              55.21447768340729
            ],
            [
              13.969940620510469,
              55.21447768340729
            ]
          ]
        ],
        "type": "Polygon"
      },
      "properties": {
        "cell_id": "851f2a43fffffff",
        "count_high_score_unmatched": 0,
        "count_total": 1,
        "count_unmatched": 1,
        "mean_score": 0.58,
        "mean_uncertainty": 0.63,
        "pct_near_coast": 0,
        "recurrence_count": 19,
        "time_bin": "2025-10-26 05:00:00",
        "time_bins_total": 16,
        "time_bins_with_unmatched": 16
      },
      "type": "Feature"
    },
    {
      "geometry": {
        "coordinates": [
          [
            [
              14.36654795027871,
              55.12019074929979
            ],
            [
              14.37172070932158,
              55.0432275145601
            ],
            [
              14.503591369497354,
              55.01138881015212
            ],
            [
              14.630535202457379,
              55.05646783084315
            ],
            [
              14.625681453985813,
              55.13345312938518
            ],
            [
              14.493564607756047,
              55.16533752959791
            ],
            [
              14.36654795027871,
              55.12019074929979
            ],
            [
              14.36654795027871,
              55.12019074929979
            ]
          ]
        ],
        "type": "Polygon"
      },
      "properties": {
        "cell_id": "851f2a7bfffffff",
        "count_high_score_unmatched": 0,
        "count_total": 1,
        "count_unmatched": 1,
        "mean_score": 0.58,
        "mean_uncertainty": 0.63,
        "pct_near_coast": 0,
        "recurrence_count": 10,
        "time_bin": "2025-10-17 16:00:00",
        "time_bins_total": 10,
        "time_bins_with_unmatched": 10
      },
      "type": "Feature"
    },
    {
      "geometry": {
        "coordinates": [
          [
            [
              13.969940620510469,
              55.21447768340729
            ],
            [
              13.975611122422459,
              55.13770664823632
            ],
            [
              14.10772926204822,
              55.106386504125815
            ],
            [
              14.234427707653547,
              55.1517927916441
            ],
            [
              14.229075885923933,
              55.22858700883818
            ],
            [
              14.096706667784831,
              55.259951941569526
            ],
            [
              13.969940620510469,
              55.21447768340729
            ],
            [
              13.969940620510469,
              55.21447768340729
            ]
          ]
        ],
        "type": "Polygon"
      },
      "properties": {
        "cell_id": "851f2a43fffffff",
        "count_high_score_unmatched": 0,
        "count_total": 1,
        "count_unmatched": 1,
        "mean_score": 0.58,
        "mean_uncertainty": 0.63,
        "pct_near_coast": 0,
        "recurrence_count": 19,
        "time_bin": "2025-10-17 16:00:00",
        "time_bins_total": 16,
        "time_bins_with_unmatched": 16
      },
      "type": "Feature"
    },
    {
      "geometry": {
        "coordinates": [
          [
            [
              14.091174752447607,
              55.33657689126543
            ],
            [
              14.096706667784831,
              55.259951941569526
            ],
            [
              14.229075885923933,
              55.22858700883818
            ],
            [
              14.356163739505739,
              55.27380174764254
            ],
            [
              14.350952191351746,
              55.35044938765513
            ],
            [
              14.218332154857883,
              55.38185978441392
            ],
            [
              14.091174752447607,
              55.33657689126543
            ],
            [
              14.091174752447607,
              55.33657689126543
            ]
          ]
        ],
        "type": "Polygon"
      },
      "properties": {
        "cell_id": "851f2a57fffffff",
        "count_high_score_unmatched": 0,
        "count_total": 1,
        "count_unmatched": 1,
        "mean_score": 0.58,
        "mean_uncertainty": 0.63,
        "pct_near_coast": 0,
        "recurrence_count": 15,
        "time_bin": "2025-10-17 16:00:00",
        "time_bins_total": 15,
        "time_bins_with_unmatched": 15
      },
      "type": "Feature"
    },
    {
      "geometry": {
        "coordinates": [
          [
            [
              13.969940620510469,
              55.21447768340729
            ],
            [
              13.975611122422459,
              55.13770664823632
            ],
            [
              14.10772926204822,
              55.106386504125815
            ],
            [
              14.234427707653547,
              55.1517927916441
            ],
            [
              14.229075885923933,
              55.22858700883818
            ],
            [
              14.096706667784831,
              55.259951941569526
            ],
            [
              13.969940620510469,
              55.21447768340729
            ],
            [
              13.969940620510469,
              55.21447768340729
            ]
          ]
        ],
        "type": "Polygon"
      },
      "properties": {
        "cell_id": "851f2a43fffffff",
        "count_high_score_unmatched": 0,
        "count_total": 1,
        "count_unmatched": 1,
        "mean_score": 0.58,
        "mean_uncertainty": 0.63,
        "pct_near_coast": 0,
        "recurrence_count": 19,
        "time_bin": "2025-10-14 05:00:00",
        "time_bins_total": 16,
        "time_bins_with_unmatched": 16
      },
      "type": "Feature"
    },
    {
      "geometry": {
        "coordinates": [
          [
            [
              14.091174752447607,
              55.33657689126543
            ],
            [
              14.096706667784831,
              55.259951941569526
            ],
            [
              14.229075885923933,
              55.22858700883818
            ],
            [
              14.356163739505739,
              55.27380174764254
            ],
            [
              14.350952191351746,
              55.35044938765513
            ],
            [
              14.218332154857883,
              55.38185978441392
            ],
            [
              14.091174752447607,
              55.33657689126543
            ],
            [
              14.091174752447607,
              55.33657689126543
            ]
          ]
        ],
        "type": "Polygon"
      },
      "properties": {
        "cell_id": "851f2a57fffffff",
        "count_high_score_unmatched": 0,
        "count_total": 1,
        "count_unmatched": 1,
        "mean_score": 0.58,
        "mean_uncertainty": 0.63,
        "pct_near_coast": 0,
        "recurrence_count": 15,
        "time_bin": "2025-10-14 05:00:00",
        "time_bins_total": 15,
        "time_bins_with_unmatched": 15
      },
      "type": "Feature"
    },
    {
      "geometry": {
        "coordinates": [
          [
            [
              14.229075885923933,
              55.22858700883818
            ],
            [
              14.234427707653547,
              55.1517927916441
            ],
            [
              14.36654795027871,
              55.12019074929979
            ],
            [
              14.493564607756047,
              55.16533752959791
            ],
            [
              14.488532479584647,
              55.24215412472524
            ],
            [
              14.356163739505739,
              55.27380174764254
            ],
            [
              14.229075885923933,
              55.22858700883818
            ],
            [
              14.229075885923933,
              55.22858700883818
            ]
          ]
        ],
        "type": "Polygon"
      },
      "properties": {
        "cell_id": "851f2a47fffffff",
        "count_high_score_unmatched": 0,
        "count_total": 1,
        "count_unmatched": 1,
        "mean_score": 0.58,
        "mean_uncertainty": 0.63,
        "pct_near_coast": 0,
        "recurrence_count": 14,
        "time_bin": "2025-10-02 05:00:00",
        "time_bins_total": 13,
        "time_bins_with_unmatched": 13
      },
      "type": "Feature"
    },
    {
      "geometry": {
        "coordinates": [
          [
            [
              14.091174752447607,
              55.33657689126543
            ],
            [
              14.096706667784831,
              55.259951941569526
            ],
            [
              14.229075885923933,
              55.22858700883818
            ],
            [
              14.356163739505739,
              55.27380174764254
            ],
            [
              14.350952191351746,
              55.35044938765513
            ],
            [
              14.218332154857883,
              55.38185978441392
            ],
            [
              14.091174752447607,
              55.33657689126543
            ],
            [
              14.091174752447607,
              55.33657689126543
            ]
          ]
        ],
        "type": "Polygon"
      },
      "properties": {
        "cell_id": "851f2a57fffffff",
        "count_high_score_unmatched": 0,
        "count_total": 1,
        "count_unmatched": 1,
        "mean_score": 0.58,
        "mean_uncertainty": 0.63,
        "pct_near_coast": 0,
        "recurrence_count": 15,
        "time_bin": "2025-10-02 05:00:00",
        "time_bins_total": 15,
        "time_bins_with_unmatched": 15
      },
      "type": "Feature"
    },
    {
      "geometry": {
        "coordinates": [
          [
            [
              13.969940620510469,
              55.21447768340729
            ],
            [
              13.975611122422459,
              55.13770664823632
            ],
            [
              14.10772926204822,
              55.106386504125815
            ],
            [
              14.234427707653547,
              55.1517927916441
            ],
            [
              14.229075885923933,
              55.22858700883818
            ],
            [
              14.096706667784831,
              55.259951941569526
            ],
            [
              13.969940620510469,
              55.21447768340729
            ],
            [
              13.969940620510469,
              55.21447768340729
            ]
          ]
        ],
        "type": "Polygon"
      },
      "properties": {
        "cell_id": "851f2a43fffffff",
        "count_high_score_unmatched": 0,
        "count_total": 1,
        "count_unmatched": 1,
        "mean_score": 0.58,
        "mean_uncertainty": 0.63,
        "pct_near_coast": 0,
        "recurrence_count": 19,
        "time_bin": "2025-09-20 05:00:00",
        "time_bins_total": 16,
        "time_bins_with_unmatched": 16
      },
      "type": "Feature"
    },
    {
      "geometry": {
        "coordinates": [
          [
            [
              13.969940620510469,
              55.21447768340729
            ],
            [
              13.975611122422459,
              55.13770664823632
            ],
            [
              14.10772926204822,
              55.106386504125815
            ],
            [
              14.234427707653547,
              55.1517927916441
            ],
            [
              14.229075885923933,
              55.22858700883818
            ],
            [
              14.096706667784831,
              55.259951941569526
            ],
            [
              13.969940620510469,
              55.21447768340729
            ],
            [
              13.969940620510469,
              55.21447768340729
            ]
          ]
        ],
        "type": "Polygon"
      },
      "properties": {
        "cell_id": "851f2a43fffffff",
        "count_high_score_unmatched": 0,
        "count_total": 1,
        "count_unmatched": 1,
        "mean_score": 0.58,
        "mean_uncertainty": 0.63,
        "pct_near_coast": 0,
        "recurrence_count": 19,
        "time_bin": "2025-09-11 16:00:00",
        "time_bins_total": 16,
        "time_bins_with_unmatched": 16
      },
      "type": "Feature"
    },
    {
      "geometry": {
        "coordinates": [
          [
            [
              14.091174752447607,
              55.33657689126543
            ],
            [
              14.096706667784831,
              55.259951941569526
            ],
            [
              14.229075885923933,
              55.22858700883818
            ],
            [
              14.356163739505739,
              55.27380174764254
            ],
            [
              14.350952191351746,
              55.35044938765513
            ],
            [
              14.218332154857883,
              55.38185978441392
            ],
            [
              14.091174752447607,
              55.33657689126543
            ],
            [
              14.091174752447607,
              55.33657689126543
            ]
          ]
        ],
        "type": "Polygon"
      },
      "properties": {
        "cell_id": "851f2a57fffffff",
        "count_high_score_unmatched": 0,
        "count_total": 1,
        "count_unmatched": 1,
        "mean_score": 0.58,
        "mean_uncertainty": 0.63,
        "pct_near_coast": 0,
        "recurrence_count": 15,
        "time_bin": "2025-09-08 05:00:00",
        "time_bins_total": 15,
        "time_bins_with_unmatched": 15
      },
      "type": "Feature"
    },
    {
      "geometry": {
        "coordinates": [
          [
            [
              14.36654795027871,
              55.12019074929979
            ],
            [
              14.37172070932158,
              55.0432275145601
            ],
            [
              14.503591369497354,
              55.01138881015212
            ],
            [
              14.630535202457379,
              55.05646783084315
            ],
            [
              14.625681453985813,
              55.13345312938518
            ],
            [
              14.493564607756047,
              55.16533752959791
            ],
            [
              14.36654795027871,
              55.12019074929979
            ],
            [
              14.36654795027871,
              55.12019074929979
            ]
          ]
        ],
        "type": "Polygon"
      },
      "properties": {
        "cell_id": "851f2a7bfffffff",
        "count_high_score_unmatched": 0,
        "count_total": 1,
        "count_unmatched": 1,
        "mean_score": 0.58,
        "mean_uncertainty": 0.63,
        "pct_near_coast": 0,
        "recurrence_count": 10,
        "time_bin": "2025-09-06 16:00:00",
        "time_bins_total": 10,
        "time_bins_with_unmatched": 10
      },
      "type": "Feature"
    },
    {
      "geometry": {
        "coordinates": [
          [
            [
              14.091174752447607,
              55.33657689126543
            ],
            [
              14.096706667784831,
              55.259951941569526
            ],
            [
              14.229075885923933,
              55.22858700883818
            ],
            [
              14.356163739505739,
              55.27380174764254
            ],
            [
              14.350952191351746,
              55.35044938765513
            ],
            [
              14.218332154857883,
              55.38185978441392
            ],
            [
              14.091174752447607,
              55.33657689126543
            ],
            [
              14.091174752447607,
              55.33657689126543
            ]
          ]
        ],
        "type": "Polygon"
      },
      "properties": {
        "cell_id": "851f2a57fffffff",
        "count_high_score_unmatched": 0,
        "count_total": 1,
        "count_unmatched": 1,
        "mean_score": 0.58,
        "mean_uncertainty": 0.63,
        "pct_near_coast": 0,
        "recurrence_count": 15,
        "time_bin": "2025-08-27 05:00:00",
        "time_bins_total": 15,
        "time_bins_with_unmatched": 15
      },
      "type": "Feature"
    },
    {
      "geometry": {
        "coordinates": [
          [
            [
              14.229075885923933,
              55.22858700883818
            ],
            [
              14.234427707653547,
              55.1517927916441
            ],
            [
              14.36654795027871,
              55.12019074929979
            ],
            [
              14.493564607756047,
              55.16533752959791
            ],
            [
              14.488532479584647,
              55.24215412472524
            ],
            [
              14.356163739505739,
              55.27380174764254
            ],
            [
              14.229075885923933,
              55.22858700883818
            ],
            [
              14.229075885923933,
              55.22858700883818
            ]
          ]
        ],
        "type": "Polygon"
      },
      "properties": {
        "cell_id": "851f2a47fffffff",
        "count_high_score_unmatched": 0,
        "count_total": 1,
        "count_unmatched": 1,
        "mean_score": 0.58,
        "mean_uncertainty": 0.63,
        "pct_near_coast": 0,
        "recurrence_count": 14,
        "time_bin": "2025-08-08 05:00:00",
        "time_bins_total": 13,
        "time_bins_with_unmatched": 13
      },
      "type": "Feature"
    },
    {
      "geometry": {
        "coordinates": [
          [
            [
              13.969940620510469,
              55.21447768340729
            ],
            [
              13.975611122422459,
              55.13770664823632
            ],
            [
              14.10772926204822,
              55.106386504125815
            ],
            [
              14.234427707653547,
              55.1517927916441
            ],
            [
              14.229075885923933,
              55.22858700883818
            ],
            [
              14.096706667784831,
              55.259951941569526
            ],
            [
              13.969940620510469,
              55.21447768340729
            ],
            [
              13.969940620510469,
              55.21447768340729
            ]
          ]
        ],
        "type": "Polygon"
      },
      "properties": {
        "cell_id": "851f2a43fffffff",
        "count_high_score_unmatched": 0,
        "count_total": 1,
        "count_unmatched": 1,
        "mean_score": 0.58,
        "mean_uncertainty": 0.63,
        "pct_near_coast": 0,
        "recurrence_count": 19,
        "time_bin": "2025-08-03 05:00:00",
        "time_bins_total": 16,
        "time_bins_with_unmatched": 16
      },
      "type": "Feature"
    },
    {
      "geometry": {
        "coordinates": [
          [
            [
              14.36654795027871,
              55.12019074929979
            ],
            [
              14.37172070932158,
              55.0432275145601
            ],
            [
              14.503591369497354,
              55.01138881015212
            ],
            [
              14.630535202457379,
              55.05646783084315
            ],
            [
              14.625681453985813,
              55.13345312938518
            ],
            [
              14.493564607756047,
              55.16533752959791
            ],
            [
              14.36654795027871,
              55.12019074929979
            ],
            [
              14.36654795027871,
              55.12019074929979
            ]
          ]
        ],
        "type": "Polygon"
      },
      "properties": {
        "cell_id": "851f2a7bfffffff",
        "count_high_score_unmatched": 0,
        "count_total": 1,
        "count_unmatched": 1,
        "mean_score": 0.58,
        "mean_uncertainty": 0.63,
        "pct_near_coast": 0,
        "recurrence_count": 10,
        "time_bin": "2025-08-01 16:00:00",
        "time_bins_total": 10,
        "time_bins_with_unmatched": 10
      },
      "type": "Feature"
    },
    {
      "geometry": {
        "coordinates": [
          [
            [
              14.36654795027871,
              55.12019074929979
            ],
            [
              14.37172070932158,
              55.0432275145601
            ],
            [
              14.503591369497354,
              55.01138881015212
            ],
            [
              14.630535202457379,
              55.05646783084315
            ],
            [
              14.625681453985813,
              55.13345312938518
            ],
            [
              14.493564607756047,
              55.16533752959791
            ],
            [
              14.36654795027871,
              55.12019074929979
            ],
            [
              14.36654795027871,
              55.12019074929979
            ]
          ]
        ],
        "type": "Polygon"
      },
      "properties": {
        "cell_id": "851f2a7bfffffff",
        "count_high_score_unmatched": 0,
        "count_total": 1,
        "count_unmatched": 1,
        "mean_score": 0.58,
        "mean_uncertainty": 0.63,
        "pct_near_coast": 0,
        "recurrence_count": 10,
        "time_bin": "2025-07-25 16:00:00",
        "time_bins_total": 10,
        "time_bins_with_unmatched": 10
      },
      "type": "Feature"
    },
    {
      "geometry": {
        "coordinates": [
          [
            [
              14.091174752447607,
              55.33657689126543
            ],
            [
              14.096706667784831,
              55.259951941569526
            ],
            [
              14.229075885923933,
              55.22858700883818
            ],
            [
              14.356163739505739,
              55.27380174764254
            ],
            [
              14.350952191351746,
              55.35044938765513
            ],
            [
              14.218332154857883,
              55.38185978441392
            ],
            [
              14.091174752447607,
              55.33657689126543
            ],
            [
              14.091174752447607,
              55.33657689126543
            ]
          ]
        ],
        "type": "Polygon"
      },
      "properties": {
        "cell_id": "851f2a57fffffff",
        "count_high_score_unmatched": 0,
        "count_total": 1,
        "count_unmatched": 1,
        "mean_score": 0.58,
        "mean_uncertainty": 0.63,
        "pct_near_coast": 0,
        "recurrence_count": 15,
        "time_bin": "2025-07-22 05:00:00",
        "time_bins_total": 15,
        "time_bins_with_unmatched": 15
      },
      "type": "Feature"
    },
    {
      "geometry": {
        "coordinates": [
          [
            [
              14.091174752447607,
              55.33657689126543
            ],
            [
              14.096706667784831,
              55.259951941569526
            ],
            [
              14.229075885923933,
              55.22858700883818
            ],
            [
              14.356163739505739,
              55.27380174764254
            ],
            [
              14.350952191351746,
              55.35044938765513
            ],
            [
              14.218332154857883,
              55.38185978441392
            ],
            [
              14.091174752447607,
              55.33657689126543
            ],
            [
              14.091174752447607,
              55.33657689126543
            ]
          ]
        ],
        "type": "Polygon"
      },
      "properties": {
        "cell_id": "851f2a57fffffff",
        "count_high_score_unmatched": 0,
        "count_total": 1,
        "count_unmatched": 1,
        "mean_score": 0.58,
        "mean_uncertainty": 0.63,
        "pct_near_coast": 0,
        "recurrence_count": 15,
        "time_bin": "2025-07-10 05:00:00",
        "time_bins_total": 15,
        "time_bins_with_unmatched": 15
      },
      "type": "Feature"
    },
    {
      "geometry": {
        "coordinates": [
          [
            [
              14.091174752447607,
              55.33657689126543
            ],
            [
              14.096706667784831,
              55.259951941569526
            ],
            [
              14.229075885923933,
              55.22858700883818
            ],
            [
              14.356163739505739,
              55.27380174764254
            ],
            [
              14.350952191351746,
              55.35044938765513
            ],
            [
              14.218332154857883,
              55.38185978441392
            ],
            [
              14.091174752447607,
              55.33657689126543
            ],
            [
              14.091174752447607,
              55.33657689126543
            ]
          ]
        ],
        "type": "Polygon"
      },
      "properties": {
        "cell_id": "851f2a57fffffff",
        "count_high_score_unmatched": 0,
        "count_total": 1,
        "count_unmatched": 1,
        "mean_score": 0.58,
        "mean_uncertainty": 0.63,
        "pct_near_coast": 0,
        "recurrence_count": 15,
        "time_bin": "2025-06-28 05:00:00",
        "time_bins_total": 15,
        "time_bins_with_unmatched": 15
      },
      "type": "Feature"
    },
    {
      "geometry": {
        "coordinates": [
          [
            [
              13.969940620510469,
              55.21447768340729
            ],
            [
              13.975611122422459,
              55.13770664823632
            ],
            [
              14.10772926204822,
              55.106386504125815
            ],
            [
              14.234427707653547,
              55.1517927916441
            ],
            [
              14.229075885923933,
              55.22858700883818
            ],
            [
              14.096706667784831,
              55.259951941569526
            ],
            [
              13.969940620510469,
              55.21447768340729
            ],
            [
              13.969940620510469,
              55.21447768340729
            ]
          ]
        ],
        "type": "Polygon"
      },
      "properties": {
        "cell_id": "851f2a43fffffff",
        "count_high_score_unmatched": 0,
        "count_total": 4,
        "count_unmatched": 4,
        "mean_score": 0.58,
        "mean_uncertainty": 0.63,
        "pct_near_coast": 0,
        "recurrence_count": 19,
        "time_bin": "2025-06-16 05:00:00",
        "time_bins_total": 16,
        "time_bins_with_unmatched": 16
      },
      "type": "Feature"
    },
    {
      "geometry": {
        "coordinates": [
          [
            [
              14.091174752447607,
              55.33657689126543
            ],
            [
              14.096706667784831,
              55.259951941569526
            ],
            [
              14.229075885923933,
              55.22858700883818
            ],
            [
              14.356163739505739,
              55.27380174764254
            ],
            [
              14.350952191351746,
              55.35044938765513
            ],
            [
              14.218332154857883,
              55.38185978441392
            ],
            [
              14.091174752447607,
              55.33657689126543
            ],
            [
              14.091174752447607,
              55.33657689126543
            ]
          ]
        ],
        "type": "Polygon"
      },
      "properties": {
        "cell_id": "851f2a57fffffff",
        "count_high_score_unmatched": 0,
        "count_total": 1,
        "count_unmatched": 1,
        "mean_score": 0.58,
        "mean_uncertainty": 0.63,
        "pct_near_coast": 0,
        "recurrence_count": 15,
        "time_bin": "2025-06-16 05:00:00",
        "time_bins_total": 15,
        "time_bins_with_unmatched": 15
      },
      "type": "Feature"
    },
    {
      "geometry": {
        "coordinates": [
          [
            [
              14.10772926204822,
              55.106386504125815
            ],
            [
              14.113220043106724,
              55.029446140322776
            ],
            [
              14.245091511718323,
              54.99788900786158
            ],
            [
              14.37172070932158,
              55.0432275145601
            ],
            [
              14.36654795027871,
              55.12019074929979
            ],
            [
              14.234427707653547,
              55.1517927916441
            ],
            [
              14.10772926204822,
              55.106386504125815
            ],
            [
              14.10772926204822,
              55.106386504125815
            ]
          ]
        ],
        "type": "Polygon"
      },
      "properties": {
        "cell_id": "851f2a4ffffffff",
        "count_high_score_unmatched": 0,
        "count_total": 2,
        "count_unmatched": 2,
        "mean_score": 0.58,
        "mean_uncertainty": 0.63,
        "pct_near_coast": 0,
        "recurrence_count": 6,
        "time_bin": "2025-06-16 05:00:00",
        "time_bins_total": 5,
        "time_bins_with_unmatched": 5
      },
      "type": "Feature"
    },
    {
      "geometry": {
        "coordinates": [
          [
            [
              14.229075885923933,
              55.22858700883818
            ],
            [
              14.234427707653547,
              55.1517927916441
            ],
            [
              14.36654795027871,
              55.12019074929979
            ],
            [
              14.493564607756047,
              55.16533752959791
            ],
            [
              14.488532479584647,
              55.24215412472524
            ],
            [
              14.356163739505739,
              55.27380174764254
            ],
            [
              14.229075885923933,
              55.22858700883818
            ],
            [
              14.229075885923933,
              55.22858700883818
            ]
          ]
        ],
        "type": "Polygon"
      },
      "properties": {
        "cell_id": "851f2a47fffffff",
        "count_high_score_unmatched": 0,
        "count_total": 1,
        "count_unmatched": 1,
        "mean_score": 0.58,
        "mean_uncertainty": 0.63,
        "pct_near_coast": 0,
        "recurrence_count": 14,
        "time_bin": "2025-06-16 05:00:00",
        "time_bins_total": 13,
        "time_bins_with_unmatched": 13
      },
      "type": "Feature"
    },
    {
      "geometry": {
        "coordinates": [
          [
            [
              14.36654795027871,
              55.12019074929979
            ],
            [
              14.37172070932158,
              55.0432275145601
            ],
            [
              14.503591369497354,
              55.01138881015212
            ],
            [
              14.630535202457379,
              55.05646783084315
            ],
            [
              14.625681453985813,
              55.13345312938518
            ],
            [
              14.493564607756047,
              55.16533752959791
            ],
            [
              14.36654795027871,
              55.12019074929979
            ],
            [
              14.36654795027871,
              55.12019074929979
            ]
          ]
        ],
        "type": "Polygon"
      },
      "properties": {
        "cell_id": "851f2a7bfffffff",
        "count_high_score_unmatched": 0,
        "count_total": 1,
        "count_unmatched": 1,
        "mean_score": 0.58,
        "mean_uncertainty": 0.63,
        "pct_near_coast": 0,
        "recurrence_count": 10,
        "time_bin": "2025-06-07 16:00:00",
        "time_bins_total": 10,
        "time_bins_with_unmatched": 10
      },
      "type": "Feature"
    },
    {
      "geometry": {
        "coordinates": [
          [
            [
              14.091174752447607,
              55.33657689126543
            ],
            [
              14.096706667784831,
              55.259951941569526
            ],
            [
              14.229075885923933,
              55.22858700883818
            ],
            [
              14.356163739505739,
              55.27380174764254
            ],
            [
              14.350952191351746,
              55.35044938765513
            ],
            [
              14.218332154857883,
              55.38185978441392
            ],
            [
              14.091174752447607,
              55.33657689126543
            ],
            [
              14.091174752447607,
              55.33657689126543
            ]
          ]
        ],
        "type": "Polygon"
      },
      "properties": {
        "cell_id": "851f2a57fffffff",
        "count_high_score_unmatched": 0,
        "count_total": 1,
        "count_unmatched": 1,
        "mean_score": 0.58,
        "mean_uncertainty": 0.63,
        "pct_near_coast": 0,
        "recurrence_count": 15,
        "time_bin": "2025-06-04 05:00:00",
        "time_bins_total": 15,
        "time_bins_with_unmatched": 15
      },
      "type": "Feature"
    },
    {
      "geometry": {
        "coordinates": [
          [
            [
              14.091174752447607,
              55.33657689126543
            ],
            [
              14.096706667784831,
              55.259951941569526
            ],
            [
              14.229075885923933,
              55.22858700883818
            ],
            [
              14.356163739505739,
              55.27380174764254
            ],
            [
              14.350952191351746,
              55.35044938765513
            ],
            [
              14.218332154857883,
              55.38185978441392
            ],
            [
              14.091174752447607,
              55.33657689126543
            ],
            [
              14.091174752447607,
              55.33657689126543
            ]
          ]
        ],
        "type": "Polygon"
      },
      "properties": {
        "cell_id": "851f2a57fffffff",
        "count_high_score_unmatched": 0,
        "count_total": 1,
        "count_unmatched": 1,
        "mean_score": 0.58,
        "mean_uncertainty": 0.63,
        "pct_near_coast": 0,
        "recurrence_count": 15,
        "time_bin": "2025-05-28 05:00:00",
        "time_bins_total": 15,
        "time_bins_with_unmatched": 15
      },
      "type": "Feature"
    },
    {
      "geometry": {
        "coordinates": [
          [
            [
              13.969940620510469,
              55.21447768340729
            ],
            [
              13.975611122422459,
              55.13770664823632
            ],
            [
              14.10772926204822,
              55.106386504125815
            ],
            [
              14.234427707653547,
              55.1517927916441
            ],
            [
              14.229075885923933,
              55.22858700883818
            ],
            [
              14.096706667784831,
              55.259951941569526
            ],
            [
              13.969940620510469,
              55.21447768340729
            ],
            [
              13.969940620510469,
              55.21447768340729
            ]
          ]
        ],
        "type": "Polygon"
      },
      "properties": {
        "cell_id": "851f2a43fffffff",
        "count_high_score_unmatched": 0,
        "count_total": 1,
        "count_unmatched": 1,
        "mean_score": 0.58,
        "mean_uncertainty": 0.63,
        "pct_near_coast": 0,
        "recurrence_count": 19,
        "time_bin": "2025-05-23 05:00:00",
        "time_bins_total": 16,
        "time_bins_with_unmatched": 16
      },
      "type": "Feature"
    },
    {
      "geometry": {
        "coordinates": [
          [
            [
              13.969940620510469,
              55.21447768340729
            ],
            [
              13.975611122422459,
              55.13770664823632
            ],
            [
              14.10772926204822,
              55.106386504125815
            ],
            [
              14.234427707653547,
              55.1517927916441
            ],
            [
              14.229075885923933,
              55.22858700883818
            ],
            [
              14.096706667784831,
              55.259951941569526
            ],
            [
              13.969940620510469,
              55.21447768340729
            ],
            [
              13.969940620510469,
              55.21447768340729
            ]
          ]
        ],
        "type": "Polygon"
      },
      "properties": {
        "cell_id": "851f2a43fffffff",
        "count_high_score_unmatched": 0,
        "count_total": 1,
        "count_unmatched": 1,
        "mean_score": 0.58,
        "mean_uncertainty": 0.63,
        "pct_near_coast": 0,
        "recurrence_count": 19,
        "time_bin": "2025-05-11 05:00:00",
        "time_bins_total": 16,
        "time_bins_with_unmatched": 16
      },
      "type": "Feature"
    },
    {
      "geometry": {
        "coordinates": [
          [
            [
              14.36654795027871,
              55.12019074929979
            ],
            [
              14.37172070932158,
              55.0432275145601
            ],
            [
              14.503591369497354,
              55.01138881015212
            ],
            [
              14.630535202457379,
              55.05646783084315
            ],
            [
              14.625681453985813,
              55.13345312938518
            ],
            [
              14.493564607756047,
              55.16533752959791
            ],
            [
              14.36654795027871,
              55.12019074929979
            ],
            [
              14.36654795027871,
              55.12019074929979
            ]
          ]
        ],
        "type": "Polygon"
      },
      "properties": {
        "cell_id": "851f2a7bfffffff",
        "count_high_score_unmatched": 0,
        "count_total": 1,
        "count_unmatched": 1,
        "mean_score": 0.58,
        "mean_uncertainty": 0.63,
        "pct_near_coast": 0,
        "recurrence_count": 10,
        "time_bin": "2025-05-02 16:00:00",
        "time_bins_total": 10,
        "time_bins_with_unmatched": 10
      },
      "type": "Feature"
    },
    {
      "geometry": {
        "coordinates": [
          [
            [
              14.091174752447607,
              55.33657689126543
            ],
            [
              14.096706667784831,
              55.259951941569526
            ],
            [
              14.229075885923933,
              55.22858700883818
            ],
            [
              14.356163739505739,
              55.27380174764254
            ],
            [
              14.350952191351746,
              55.35044938765513
            ],
            [
              14.218332154857883,
              55.38185978441392
            ],
            [
              14.091174752447607,
              55.33657689126543
            ],
            [
              14.091174752447607,
              55.33657689126543
            ]
          ]
        ],
        "type": "Polygon"
      },
      "properties": {
        "cell_id": "851f2a57fffffff",
        "count_high_score_unmatched": 0,
        "count_total": 1,
        "count_unmatched": 1,
        "mean_score": 0.58,
        "mean_uncertainty": 0.63,
        "pct_near_coast": 0,
        "recurrence_count": 15,
        "time_bin": "2025-04-17 05:00:00",
        "time_bins_total": 15,
        "time_bins_with_unmatched": 15
      },
      "type": "Feature"
    },
    {
      "geometry": {
        "coordinates": [
          [
            [
              13.969940620510469,
              55.21447768340729
            ],
            [
              13.975611122422459,
              55.13770664823632
            ],
            [
              14.10772926204822,
              55.106386504125815
            ],
            [
              14.234427707653547,
              55.1517927916441
            ],
            [
              14.229075885923933,
              55.22858700883818
            ],
            [
              14.096706667784831,
              55.259951941569526
            ],
            [
              13.969940620510469,
              55.21447768340729
            ],
            [
              13.969940620510469,
              55.21447768340729
            ]
          ]
        ],
        "type": "Polygon"
      },
      "properties": {
        "cell_id": "851f2a43fffffff",
        "count_high_score_unmatched": 0,
        "count_total": 1,
        "count_unmatched": 1,
        "mean_score": 0.58,
        "mean_uncertainty": 0.63,
        "pct_near_coast": 0,
        "recurrence_count": 19,
        "time_bin": "2025-04-05 05:00:00",
        "time_bins_total": 16,
        "time_bins_with_unmatched": 16
      },
      "type": "Feature"
    },
    {
      "geometry": {
        "coordinates": [
          [
            [
              14.229075885923933,
              55.22858700883818
            ],
            [
              14.234427707653547,
              55.1517927916441
            ],
            [
              14.36654795027871,
              55.12019074929979
            ],
            [
              14.493564607756047,
              55.16533752959791
            ],
            [
              14.488532479584647,
              55.24215412472524
            ],
            [
              14.356163739505739,
              55.27380174764254
            ],
            [
              14.229075885923933,
              55.22858700883818
            ],
            [
              14.229075885923933,
              55.22858700883818
            ]
          ]
        ],
        "type": "Polygon"
      },
      "properties": {
        "cell_id": "851f2a47fffffff",
        "count_high_score_unmatched": 0,
        "count_total": 1,
        "count_unmatched": 1,
        "mean_score": 0.58,
        "mean_uncertainty": 0.63,
        "pct_near_coast": 0,
        "recurrence_count": 14,
        "time_bin": "2025-02-19 16:00:00",
        "time_bins_total": 13,
        "time_bins_with_unmatched": 13
      },
      "type": "Feature"
    },
    {
      "geometry": {
        "coordinates": [
          [
            [
              14.229075885923933,
              55.22858700883818
            ],
            [
              14.234427707653547,
              55.1517927916441
            ],
            [
              14.36654795027871,
              55.12019074929979
            ],
            [
              14.493564607756047,
              55.16533752959791
            ],
            [
              14.488532479584647,
              55.24215412472524
            ],
            [
              14.356163739505739,
              55.27380174764254
            ],
            [
              14.229075885923933,
              55.22858700883818
            ],
            [
              14.229075885923933,
              55.22858700883818
            ]
          ]
        ],
        "type": "Polygon"
      },
      "properties": {
        "cell_id": "851f2a47fffffff",
        "count_high_score_unmatched": 0,
        "count_total": 1,
        "count_unmatched": 1,
        "mean_score": 0.58,
        "mean_uncertainty": 0.63,
        "pct_near_coast": 0,
        "recurrence_count": 14,
        "time_bin": "2025-02-16 05:00:00",
        "time_bins_total": 13,
        "time_bins_with_unmatched": 13
      },
      "type": "Feature"
    },
    {
      "geometry": {
        "coordinates": [
          [
            [
              14.10772926204822,
              55.106386504125815
            ],
            [
              14.113220043106724,
              55.029446140322776
            ],
            [
              14.245091511718323,
              54.99788900786158
            ],
            [
              14.37172070932158,
              55.0432275145601
            ],
            [
              14.36654795027871,
              55.12019074929979
            ],
            [
              14.234427707653547,
              55.1517927916441
            ],
            [
              14.10772926204822,
              55.106386504125815
            ],
            [
              14.10772926204822,
              55.106386504125815
            ]
          ]
        ],
        "type": "Polygon"
      },
      "properties": {
        "cell_id": "851f2a4ffffffff",
        "count_high_score_unmatched": 0,
        "count_total": 1,
        "count_unmatched": 1,
        "mean_score": 0.58,
        "mean_uncertainty": 0.63,
        "pct_near_coast": 0,
        "recurrence_count": 6,
        "time_bin": "2025-02-07 16:00:00",
        "time_bins_total": 5,
        "time_bins_with_unmatched": 5
      },
      "type": "Feature"
    },
    {
      "geometry": {
        "coordinates": [
          [
            [
              14.091174752447607,
              55.33657689126543
            ],
            [
              14.096706667784831,
              55.259951941569526
            ],
            [
              14.229075885923933,
              55.22858700883818
            ],
            [
              14.356163739505739,
              55.27380174764254
            ],
            [
              14.350952191351746,
              55.35044938765513
            ],
            [
              14.218332154857883,
              55.38185978441392
            ],
            [
              14.091174752447607,
              55.33657689126543
            ],
            [
              14.091174752447607,
              55.33657689126543
            ]
          ]
        ],
        "type": "Polygon"
      },
      "properties": {
        "cell_id": "851f2a57fffffff",
        "count_high_score_unmatched": 0,
        "count_total": 1,
        "count_unmatched": 1,
        "mean_score": 0.58,
        "mean_uncertainty": 0.63,
        "pct_near_coast": 0,
        "recurrence_count": 15,
        "time_bin": "2025-02-07 16:00:00",
        "time_bins_total": 15,
        "time_bins_with_unmatched": 15
      },
      "type": "Feature"
    },
    {
      "geometry": {
        "coordinates": [
          [
            [
              14.091174752447607,
              55.33657689126543
            ],
            [
              14.096706667784831,
              55.259951941569526
            ],
            [
              14.229075885923933,
              55.22858700883818
            ],
            [
              14.356163739505739,
              55.27380174764254
            ],
            [
              14.350952191351746,
              55.35044938765513
            ],
            [
              14.218332154857883,
              55.38185978441392
            ],
            [
              14.091174752447607,
              55.33657689126543
            ],
            [
              14.091174752447607,
              55.33657689126543
            ]
          ]
        ],
        "type": "Polygon"
      },
      "properties": {
        "cell_id": "851f2a57fffffff",
        "count_high_score_unmatched": 0,
        "count_total": 1,
        "count_unmatched": 1,
        "mean_score": 0.58,
        "mean_uncertainty": 0.63,
        "pct_near_coast": 0,
        "recurrence_count": 15,
        "time_bin": "2025-01-28 05:00:00",
        "time_bins_total": 15,
        "time_bins_with_unmatched": 15
      },
      "type": "Feature"
    },
    {
      "geometry": {
        "coordinates": [
          [
            [
              13.969940620510469,
              55.21447768340729
            ],
            [
              13.975611122422459,
              55.13770664823632
            ],
            [
              14.10772926204822,
              55.106386504125815
            ],
            [
              14.234427707653547,
              55.1517927916441
            ],
            [
              14.229075885923933,
              55.22858700883818
            ],
            [
              14.096706667784831,
              55.259951941569526
            ],
            [
              13.969940620510469,
              55.21447768340729
            ],
            [
              13.969940620510469,
              55.21447768340729
            ]
          ]
        ],
        "type": "Polygon"
      },
      "properties": {
        "cell_id": "851f2a43fffffff",
        "count_high_score_unmatched": 0,
        "count_total": 1,
        "count_unmatched": 1,
        "mean_score": 0.58,
        "mean_uncertainty": 0.63,
        "pct_near_coast": 0,
        "recurrence_count": 19,
        "time_bin": "2025-01-28 05:00:00",
        "time_bins_total": 16,
        "time_bins_with_unmatched": 16
      },
      "type": "Feature"
    },
    {
      "geometry": {
        "coordinates": [
          [
            [
              13.969940620510469,
              55.21447768340729
            ],
            [
              13.975611122422459,
              55.13770664823632
            ],
            [
              14.10772926204822,
              55.106386504125815
            ],
            [
              14.234427707653547,
              55.1517927916441
            ],
            [
              14.229075885923933,
              55.22858700883818
            ],
            [
              14.096706667784831,
              55.259951941569526
            ],
            [
              13.969940620510469,
              55.21447768340729
            ],
            [
              13.969940620510469,
              55.21447768340729
            ]
          ]
        ],
        "type": "Polygon"
      },
      "properties": {
        "cell_id": "851f2a43fffffff",
        "count_high_score_unmatched": 0,
        "count_total": 1,
        "count_unmatched": 1,
        "mean_score": 0.58,
        "mean_uncertainty": 0.63,
        "pct_near_coast": 0,
        "recurrence_count": 19,
        "time_bin": "2025-01-26 16:00:00",
        "time_bins_total": 16,
        "time_bins_with_unmatched": 16
      },
      "type": "Feature"
    },
    {
      "geometry": {
        "coordinates": [
          [
            [
              14.10772926204822,
              55.106386504125815
            ],
            [
              14.113220043106724,
              55.029446140322776
            ],
            [
              14.245091511718323,
              54.99788900786158
            ],
            [
              14.37172070932158,
              55.0432275145601
            ],
            [
              14.36654795027871,
              55.12019074929979
            ],
            [
              14.234427707653547,
              55.1517927916441
            ],
            [
              14.10772926204822,
              55.106386504125815
            ],
            [
              14.10772926204822,
              55.106386504125815
            ]
          ]
        ],
        "type": "Polygon"
      },
      "properties": {
        "cell_id": "851f2a4ffffffff",
        "count_high_score_unmatched": 0,
        "count_total": 1,
        "count_unmatched": 1,
        "mean_score": 0.58,
        "mean_uncertainty": 0.63,
        "pct_near_coast": 0,
        "recurrence_count": 6,
        "time_bin": "2025-01-23 05:00:00",
        "time_bins_total": 5,
        "time_bins_with_unmatched": 5
      },
      "type": "Feature"
    },
    {
      "geometry": {
        "coordinates": [
          [
            [
              14.10772926204822,
              55.106386504125815
            ],
            [
              14.113220043106724,
              55.029446140322776
            ],
            [
              14.245091511718323,
              54.99788900786158
            ],
            [
              14.37172070932158,
              55.0432275145601
            ],
            [
              14.36654795027871,
              55.12019074929979
            ],
            [
              14.234427707653547,
              55.1517927916441
            ],
            [
              14.10772926204822,
              55.106386504125815
            ],
            [
              14.10772926204822,
              55.106386504125815
            ]
          ]
        ],
        "type": "Polygon"
      },
      "properties": {
        "cell_id": "851f2a4ffffffff",
        "count_high_score_unmatched": 0,
        "count_total": 1,
        "count_unmatched": 1,
        "mean_score": 0.58,
        "mean_uncertainty": 0.63,
        "pct_near_coast": 0,
        "recurrence_count": 6,
        "time_bin": "2025-01-16 05:00:00",
        "time_bins_total": 5,
        "time_bins_with_unmatched": 5
      },
      "type": "Feature"
    },
    {
      "geometry": {
        "coordinates": [
          [
            [
              13.969940620510469,
              55.21447768340729
            ],
            [
              13.975611122422459,
              55.13770664823632
            ],
            [
              14.10772926204822,
              55.106386504125815
            ],
            [
              14.234427707653547,
              55.1517927916441
            ],
            [
              14.229075885923933,
              55.22858700883818
            ],
            [
              14.096706667784831,
              55.259951941569526
            ],
            [
              13.969940620510469,
              55.21447768340729
            ],
            [
              13.969940620510469,
              55.21447768340729
            ]
          ]
        ],
        "type": "Polygon"
      },
      "properties": {
        "cell_id": "851f2a43fffffff",
        "count_high_score_unmatched": 0,
        "count_total": 1,
        "count_unmatched": 1,
        "mean_score": 0.58,
        "mean_uncertainty": 0.63,
        "pct_near_coast": 0,
        "recurrence_count": 19,
        "time_bin": "2025-01-16 05:00:00",
        "time_bins_total": 16,
        "time_bins_with_unmatched": 16
      },
      "type": "Feature"
    }
  ],
  "type": "FeatureCollection"
}