{
  "type": "FeatureCollection",
  "features": [
    {
      "type": "Feature",
      "properties": {
        "event_id": "745b06c4138f2180fb642f38b6d7c63b95edec6d894d5b4984099ce232fdc129",
        "timestamp_utc": "2025-12-01T05:00:00Z",
        "matched_flag": true,
        "lat": 55.25,
        "lon": 14.3,
        "confidence_proxy": null,
        "confidence_tier": "low",
        "distance_to_coast_km": 17.37,
        "context_layers": {
          "EEZ": {
            "dataset": "World_EEZ_20231025_LR",
            "version": "v12",
            "enrichments": [
              {
                "id": "5694",
                "label": "Swedish Exclusive Economic Zone"
              }
            ]
          },
          "MPA": {
            "dataset": "WDPA_WDOECM_APR2026",
            "version": "v1.6",
            "enrichments": []
          },
          "Bathymetry": {
            "dataset": "gebco_2025_sub_ice_topo",
            "version": "v2.7",
            "enrichments": [
              {
                "value": "-44"
              }
            ]
          }
        },
        "scoring": {
          "triage_score": 0.73,
          "uncertainty_score": 0.38,
          "reason_codes": [
            "matched_to_public_ais",
            "missing_confidence_proxy",
            "low_confidence_tier",
            "inside_eez",
            "bathymetry_shallow_eez_hotspot",
            "bathymetry_cargo_anomaly_zone"
          ]
        }
      },
      "geometry": {
        "type": "Point",
        "coordinates": [
          14.3,
          55.25
        ]
      }
    },
    {
      "type": "Feature",
      "properties": {
        "event_id": "97ce71fec35ea516723c7bd7821bf40f9e4d1763c5027afe649da6a5600d4a23",
        "timestamp_utc": "2025-12-01T05:00:00Z",
        "matched_flag": true,
        "lat": 55.11,
        "lon": 14.13,
        "confidence_proxy": null,
        "confidence_tier": "low",
        "distance_to_coast_km": 30.83,
        "context_layers": {
          "EEZ": {
            "dataset": "World_EEZ_20231025_LR",
            "version": "v12",
            "enrichments": [
              {
                "id": "5694",
                "label": "Swedish Exclusive Economic Zone"
              }
            ]
          },
          "MPA": {
            "dataset": "WDPA_WDOECM_APR2026",
            "version": "v1.6",
            "enrichments": []
          },
          "Bathymetry": {
            "dataset": "gebco_2025_sub_ice_topo",
            "version": "v2.7",
            "enrichments": [
              {
                "value": "-46"
              }
            ]
          }
        },
        "scoring": {
          "triage_score": 0.53,
          "uncertainty_score": 0.38,
          "reason_codes": [
            "matched_to_public_ais",
            "missing_confidence_proxy",
            "low_confidence_tier",
            "inside_eez",
            "bathymetry_shallow_eez_hotspot"
          ]
        }
      },
      "geometry": {
        "type": "Point",
        "coordinates": [
          14.13,
          55.11
        ]
      }
    },
    {
      "type": "Feature",
      "properties": {
        "event_id": "a89c06c52f16f09098bdb2edf1a5d9e48b69580ff0dd69f44fecb1208f48ef99",
        "timestamp_utc": "2025-12-01T05:00:00Z",
        "matched_flag": true,
        "lat": 55.18,
        "lon": 14.2,
        "confidence_proxy": null,
        "confidence_tier": "low",
        "distance_to_coast_km": 23.19,
        "context_layers": {
          "EEZ": {
            "dataset": "World_EEZ_20231025_LR",
            "version": "v12",
            "enrichments": [
              {
                "id": "5694",
                "label": "Swedish Exclusive Economic Zone"
              }
            ]
          },
          "MPA": {
            "dataset": "WDPA_WDOECM_APR2026",
            "version": "v1.6",
            "enrichments": []
          },
          "Bathymetry": {
            "dataset": "gebco_2025_sub_ice_topo",
            "version": "v2.7",
            "enrichments": [
              {
                "value": "-44"
              }
            ]
          }
        },
        "scoring": {
          "triage_score": 0.73,
          "uncertainty_score": 0.38,
          "reason_codes": [
            "matched_to_public_ais",
            "missing_confidence_proxy",
            "low_confidence_tier",
            "inside_eez",
            "bathymetry_shallow_eez_hotspot",
            "bathymetry_cargo_anomaly_zone"
          ]
        }
      },
      "geometry": {
        "type": "Point",
        "coordinates": [
          14.2,
          55.18
        ]
      }
    },
    {
      "type": "Feature",
      "properties": {
        "event_id": "b9ca5ed29a15b3a42caf251949422858a3531124c58497c05c97d7ecb6e863fd",
        "timestamp_utc": "2025-12-01T05:00:00Z",
        "matched_flag": true,
        "lat": 55.24,
        "lon": 14.13,
        "confidence_proxy": null,
        "confidence_tier": "low",
        "distance_to_coast_km": 16.38,
        "context_layers": {
          "EEZ": {
            "dataset": "World_EEZ_20231025_LR",
            "version": "v12",
            "enrichments": [
              {
                "id": "5694",
                "label": "Swedish Exclusive Economic Zone"
              }
            ]
          },
          "MPA": {
            "dataset": "WDPA_WDOECM_APR2026",
            "version": "v1.6",
            "enrichments": []
          },
          "Bathymetry": {
            "dataset": "gebco_2025_sub_ice_topo",
            "version": "v2.7",
            "enrichments": [
              {
                "value": "-36"
              }
            ]
          }
        },
        "scoring": {
          "triage_score": 0.73,
          "uncertainty_score": 0.38,
          "reason_codes": [
            "matched_to_public_ais",
            "missing_confidence_proxy",
            "low_confidence_tier",
            "inside_eez",
            "bathymetry_shallow_eez_hotspot",
            "bathymetry_cargo_anomaly_zone"
          ]
        }
      },
      "geometry": {
        "type": "Point",
        "coordinates": [
          14.13,
          55.24
        ]
      }
    },
    {
      "type": "Feature",
      "properties": {
        "event_id": "bf8d2baf8bc9e7edd6b5c17e27d4fcc16c5045f1dd13e8db4b5574d75601e2e0",
        "timestamp_utc": "2025-12-01T05:00:00Z",
        "matched_flag": true,
        "lat": 55.21,
        "lon": 14.4,
        "confidence_proxy": null,
        "confidence_tier": "low",
        "distance_to_coast_km": 19.31,
        "context_layers": {
          "EEZ": {
            "dataset": "World_EEZ_20231025_LR",
            "version": "v12",
            "enrichments": [
              {
                "id": "5674",
                "label": "Danish Exclusive Economic Zone"
              }
            ]
          },
          "MPA": {
            "dataset": "WDPA_WDOECM_APR2026",
            "version": "v1.6",
            "enrichments": []
          },
          "Bathymetry": {
            "dataset": "gebco_2025_sub_ice_topo",
            "version": "v2.7",
            "enrichments": [
              {
                "value": "-43"
              }
            ]
          }
        },
        "scoring": {
          "triage_score": 0.73,
          "uncertainty_score": 0.38,
          "reason_codes": [
            "matched_to_public_ais",
            "missing_confidence_proxy",
            "low_confidence_tier",
            "inside_eez",
            "bathymetry_shallow_eez_hotspot",
            "bathymetry_cargo_anomaly_zone"
          ]
        }
      },
      "geometry": {
        "type": "Point",
        "coordinates": [
          14.4,
          55.21
        ]
      }
    },
    {
      "type": "Feature",
      "properties": {
        "event_id": "332c6c887fbb43fb761bb09ad686ff369790d862e30e24fa74f184e4ac279b59",
        "timestamp_utc": "2025-12-04T16:00:00Z",
        "matched_flag": true,
        "lat": 55.16,
        "lon": 14.17,
        "confidence_proxy": null,
        "confidence_tier": "low",
        "distance_to_coast_km": 25.27,
        "context_layers": {
          "EEZ": {
            "dataset": "World_EEZ_20231025_LR",
            "version": "v12",
            "enrichments": [
              {
                "id": "5694",
                "label": "Swedish Exclusive Economic Zone"
              }
            ]
          },
          "MPA": {
            "dataset": "WDPA_WDOECM_APR2026",
            "version": "v1.6",
            "enrichments": []
          },
          "Bathymetry": {
            "dataset": "gebco_2025_sub_ice_topo",
            "version": "v2.7",
            "enrichments": [
              {
                "value": "-44"
              }
            ]
          }
        },
        "scoring": {
          "triage_score": 0.73,
          "uncertainty_score": 0.38,
          "reason_codes": [
            "matched_to_public_ais",
            "missing_confidence_proxy",
            "low_confidence_tier",
            "inside_eez",
            "bathymetry_shallow_eez_hotspot",
            "bathymetry_cargo_anomaly_zone"
          ]
        }
      },
      "geometry": {
        "type": "Point",
        "coordinates": [
          14.17,
          55.16
        ]
      }
    },
    {
      "type": "Feature",
      "properties": {
        "event_id": "5e301cf33d4f21ba6727e27763a2e74abee90609540497ef0cd4658cbd34d6a2",
        "timestamp_utc": "2025-12-04T16:00:00Z",
        "matched_flag": true,
        "lat": 55.16,
        "lon": 14.11,
        "confidence_proxy": null,
        "confidence_tier": "low",
        "distance_to_coast_km": 25.28,
        "context_layers": {
          "EEZ": {
            "dataset": "World_EEZ_20231025_LR",
            "version": "v12",
            "enrichments": [
              {
                "id": "5694",
                "label": "Swedish Exclusive Economic Zone"
              }
            ]
          },
          "MPA": {
            "dataset": "WDPA_WDOECM_APR2026",
            "version": "v1.6",
            "enrichments": []
          },
          "Bathymetry": {
            "dataset": "gebco_2025_sub_ice_topo",
            "version": "v2.7",
            "enrichments": [
              {
                "value": "-44"
              }
            ]
          }
        },
        "scoring": {
          "triage_score": 0.53,
          "uncertainty_score": 0.38,
          "reason_codes": [
            "matched_to_public_ais",
            "missing_confidence_proxy",
            "low_confidence_tier",
            "inside_eez",
            "bathymetry_shallow_eez_hotspot"
          ]
        }
      },
      "geometry": {
        "type": "Point",
        "coordinates": [
          14.11,
          55.16
        ]
      }
    },
    {
      "type": "Feature",
      "properties": {
        "event_id": "8295ccc8a648afefb4588b3127cc520c62001bcaa875d5735b47b758ce6a95bd",
        "timestamp_utc": "2025-12-04T16:00:00Z",
        "matched_flag": false,
        "lat": 55.2,
        "lon": 14.21,
        "confidence_proxy": null,
        "confidence_tier": "low",
        "distance_to_coast_km": 21.07,
        "context_layers": {
          "EEZ": {
            "dataset": "World_EEZ_20231025_LR",
            "version": "v12",
            "enrichments": [
              {
                "id": "5694",
                "label": "Swedish Exclusive Economic Zone"
              }
            ]
          },
          "MPA": {
            "dataset": "WDPA_WDOECM_APR2026",
            "version": "v1.6",
            "enrichments": []
          },
          "Bathymetry": {
            "dataset": "gebco_2025_sub_ice_topo",
            "version": "v2.7",
            "enrichments": [
              {
                "value": "-43"
              }
            ]
          }
        },
        "scoring": {
          "triage_score": 0.58,
          "uncertainty_score": 0.63,
          "reason_codes": [
            "unmatched_to_public_ais",
            "missing_confidence_proxy",
            "low_confidence_tier",
            "inside_eez",
            "bathymetry_shallow_eez_hotspot"
          ]
        }
      },
      "geometry": {
        "type": "Point",
        "coordinates": [
          14.21,
          55.2
        ]
      }
    },
    {
      "type": "Feature",
      "properties": {
        "event_id": "cbbf5b2f2035f0eb692c96f9b3adc06f95a96d49ea718e967e191333feca863b",
        "timestamp_utc": "2025-12-04T16:00:00Z",
        "matched_flag": true,
        "lat": 55.16,
        "lon": 14.68,
        "confidence_proxy": null,
        "confidence_tier": "low",
        "distance_to_coast_km": 1.33,
        "context_layers": {
          "EEZ": {
            "dataset": "World_EEZ_20231025_LR",
            "version": "v12",
            "enrichments": [
              {
                "id": "5674",
                "label": "Danish Exclusive Economic Zone"
              }
            ]
          },
          "MPA": {
            "dataset": "WDPA_WDOECM_APR2026",
            "version": "v1.6",
            "enrichments": []
          },
          "Bathymetry": {
            "dataset": "gebco_2025_sub_ice_topo",
            "version": "v2.7",
            "enrichments": [
              {
                "value": "-22"
              }
            ]
          }
        },
        "scoring": {
          "triage_score": 0.83,
          "uncertainty_score": 0.38,
          "reason_codes": [
            "matched_to_public_ais",
            "missing_confidence_proxy",
            "low_confidence_tier",
            "inside_eez",
            "near_coast",
            "bathymetry_shallow_eez_hotspot"
          ]
        }
      },
      "geometry": {
        "type": "Point",
        "coordinates": [
          14.68,
          55.16
        ]
      }
    },
    {
      "type": "Feature",
      "properties": {
        "event_id": "d4461c9a171a5a60e73cdef504c3a60eeece0b54df8bc402821520e244d3caa2",
        "timestamp_utc": "2025-12-04T16:00:00Z",
        "matched_flag": true,
        "lat": 55.19,
        "lon": 14.24,
        "confidence_proxy": null,
        "confidence_tier": "low",
        "distance_to_coast_km": 22.53,
        "context_layers": {
          "EEZ": {
            "dataset": "World_EEZ_20231025_LR",
            "version": "v12",
            "enrichments": [
              {
                "id": "5694",
                "label": "Swedish Exclusive Economic Zone"
              }
            ]
          },
          "MPA": {
            "dataset": "WDPA_WDOECM_APR2026",
            "version": "v1.6",
            "enrichments": []
          },
          "Bathymetry": {
            "dataset": "gebco_2025_sub_ice_topo",
            "version": "v2.7",
            "enrichments": [
              {
                "value": "-44"
              }
            ]
          }
        },
        "scoring": {
          "triage_score": 0.53,
          "uncertainty_score": 0.38,
          "reason_codes": [
            "matched_to_public_ais",
            "missing_confidence_proxy",
            "low_confidence_tier",
            "inside_eez",
            "bathymetry_shallow_eez_hotspot"
          ]
        }
      },
      "geometry": {
        "type": "Point",
        "coordinates": [
          14.24,
          55.19
        ]
      }
    },
    {
      "type": "Feature",
      "properties": {
        "event_id": "d44afb12029541a7678103c8212636a3322f3a9c40137adc12d7d735c5fbf695",
        "timestamp_utc": "2025-12-04T16:00:00Z",
        "matched_flag": true,
        "lat": 55.15,
        "lon": 14.22,
        "confidence_proxy": null,
        "confidence_tier": "low",
        "distance_to_coast_km": 26.66,
        "context_layers": {
          "EEZ": {
            "dataset": "World_EEZ_20231025_LR",
            "version": "v12",
            "enrichments": [
              {
                "id": "5694",
                "label": "Swedish Exclusive Economic Zone"
              }
            ]
          },
          "MPA": {
            "dataset": "WDPA_WDOECM_APR2026",
            "version": "v1.6",
            "enrichments": []
          },
          "Bathymetry": {
            "dataset": "gebco_2025_sub_ice_topo",
            "version": "v2.7",
            "enrichments": [
              {
                "value": "-45"
              }
            ]
          }
        },
        "scoring": {
          "triage_score": 0.53,
          "uncertainty_score": 0.38,
          "reason_codes": [
            "matched_to_public_ais",
            "missing_confidence_proxy",
            "low_confidence_tier",
            "inside_eez",
            "bathymetry_shallow_eez_hotspot"
          ]
        }
      },
      "geometry": {
        "type": "Point",
        "coordinates": [
          14.22,
          55.15
        ]
      }
    },
    {
      "type": "Feature",
      "properties": {
        "event_id": "dfc71c0f4f7bd3840a93e9d0d5d155ebf2834103343954d16312b5e9b235ec23",
        "timestamp_utc": "2025-12-04T16:00:00Z",
        "matched_flag": true,
        "lat": 55.22,
        "lon": 14.41,
        "confidence_proxy": null,
        "confidence_tier": "low",
        "distance_to_coast_km": 18.72,
        "context_layers": {
          "EEZ": {
            "dataset": "World_EEZ_20231025_LR",
            "version": "v12",
            "enrichments": [
              {
                "id": "5674",
                "label": "Danish Exclusive Economic Zone"
              }
            ]
          },
          "MPA": {
            "dataset": "WDPA_WDOECM_APR2026",
            "version": "v1.6",
            "enrichments": [
              {
                "id": "555774273",
                "label": "I"
              }
            ]
          },
          "Bathymetry": {
            "dataset": "gebco_2025_sub_ice_topo",
            "version": "v2.7",
            "enrichments": [
              {
                "value": "-43"
              }
            ]
          }
        },
        "scoring": {
          "triage_score": 1,
          "uncertainty_score": 0.38,
          "reason_codes": [
            "matched_to_public_ais",
            "missing_confidence_proxy",
            "low_confidence_tier",
            "inside_eez",
            "inside_mpa",
            "bathymetry_shallow_eez_hotspot",
            "bathymetry_mpa_shallow_zone",
            "bathymetry_cargo_anomaly_zone"
          ]
        }
      },
      "geometry": {
        "type": "Point",
        "coordinates": [
          14.41,
          55.22
        ]
      }
    },
    {
      "type": "Feature",
      "properties": {
        "event_id": "0308d2e58f87a457eec2e4c56cc37049e5d0c214d3058fac67fbdf30944fc5a9",
        "timestamp_utc": "2025-12-06T05:00:00Z",
        "matched_flag": true,
        "lat": 55.23,
        "lon": 14.19,
        "confidence_proxy": null,
        "confidence_tier": "low",
        "distance_to_coast_km": 17.59,
        "context_layers": {
          "EEZ": {
            "dataset": "World_EEZ_20231025_LR",
            "version": "v12",
            "enrichments": [
              {
                "id": "5694",
                "label": "Swedish Exclusive Economic Zone"
              }
            ]
          },
          "MPA": {
            "dataset": "WDPA_WDOECM_APR2026",
            "version": "v1.6",
            "enrichments": []
          },
          "Bathymetry": {
            "dataset": "gebco_2025_sub_ice_topo",
            "version": "v2.7",
            "enrichments": [
              {
                "value": "-39"
              }
            ]
          }
        },
        "scoring": {
          "triage_score": 0.73,
          "uncertainty_score": 0.38,
          "reason_codes": [
            "matched_to_public_ais",
            "missing_confidence_proxy",
            "low_confidence_tier",
            "inside_eez",
            "bathymetry_shallow_eez_hotspot",
            "bathymetry_cargo_anomaly_zone"
          ]
        }
      },
      "geometry": {
        "type": "Point",
        "coordinates": [
          14.19,
          55.23
        ]
      }
    },
    {
      "type": "Feature",
      "properties": {
        "event_id": "0dbc1379c8a56f3eb1da988f79b3ac8034f91980b6803bfa03492471f21a0d33",
        "timestamp_utc": "2025-12-06T05:00:00Z",
        "matched_flag": true,
        "lat": 55.23,
        "lon": 14.29,
        "confidence_proxy": null,
        "confidence_tier": "low",
        "distance_to_coast_km": 19.16,
        "context_layers": {
          "EEZ": {
            "dataset": "World_EEZ_20231025_LR",
            "version": "v12",
            "enrichments": [
              {
                "id": "5694",
                "label": "Swedish Exclusive Economic Zone"
              }
            ]
          },
          "MPA": {
            "dataset": "WDPA_WDOECM_APR2026",
            "version": "v1.6",
            "enrichments": []
          },
          "Bathymetry": {
            "dataset": "gebco_2025_sub_ice_topo",
            "version": "v2.7",
            "enrichments": [
              {
                "value": "-45"
              }
            ]
          }
        },
        "scoring": {
          "triage_score": 0.53,
          "uncertainty_score": 0.38,
          "reason_codes": [
            "matched_to_public_ais",
            "missing_confidence_proxy",
            "low_confidence_tier",
            "inside_eez",
            "bathymetry_shallow_eez_hotspot"
          ]
        }
      },
      "geometry": {
        "type": "Point",
        "coordinates": [
          14.29,
          55.23
        ]
      }
    },
    {
      "type": "Feature",
      "properties": {
        "event_id": "2467aabb706f8d708de0726e25ed51d73a8fae4475766a3aa761d0d24c958ad8",
        "timestamp_utc": "2025-12-06T05:00:00Z",
        "matched_flag": true,
        "lat": 55.09,
        "lon": 14.09,
        "confidence_proxy": null,
        "confidence_tier": "low",
        "distance_to_coast_km": 33.07,
        "context_layers": {
          "EEZ": {
            "dataset": "World_EEZ_20231025_LR",
            "version": "v12",
            "enrichments": [
              {
                "id": "5694",
                "label": "Swedish Exclusive Economic Zone"
              }
            ]
          },
          "MPA": {
            "dataset": "WDPA_WDOECM_APR2026",
            "version": "v1.6",
            "enrichments": []
          },
          "Bathymetry": {
            "dataset": "gebco_2025_sub_ice_topo",
            "version": "v2.7",
            "enrichments": [
              {
                "value": "-46"
              }
            ]
          }
        },
        "scoring": {
          "triage_score": 0.73,
          "uncertainty_score": 0.38,
          "reason_codes": [
            "matched_to_public_ais",
            "missing_confidence_proxy",
            "low_confidence_tier",
            "inside_eez",
            "bathymetry_shallow_eez_hotspot",
            "bathymetry_cargo_anomaly_zone"
          ]
        }
      },
      "geometry": {
        "type": "Point",
        "coordinates": [
          14.09,
          55.09
        ]
      }
    },
    {
      "type": "Feature",
      "properties": {
        "event_id": "5be65e8fc2b375b0f0cb2eb75530cd7df6066d15f83e483165eeae5d168f271b",
        "timestamp_utc": "2025-12-06T05:00:00Z",
        "matched_flag": true,
        "lat": 55.15,
        "lon": 14.3,
        "confidence_proxy": null,
        "confidence_tier": "low",
        "distance_to_coast_km": 25.02,
        "context_layers": {
          "EEZ": {
            "dataset": "World_EEZ_20231025_LR",
            "version": "v12",
            "enrichments": [
              {
                "id": "5674",
                "label": "Danish Exclusive Economic Zone"
              }
            ]
          },
          "MPA": {
            "dataset": "WDPA_WDOECM_APR2026",
            "version": "v1.6",
            "enrichments": []
          },
          "Bathymetry": {
            "dataset": "gebco_2025_sub_ice_topo",
            "version": "v2.7",
            "enrichments": [
              {
                "value": "-46"
              }
            ]
          }
        },
        "scoring": {
          "triage_score": 0.53,
          "uncertainty_score": 0.38,
          "reason_codes": [
            "matched_to_public_ais",
            "missing_confidence_proxy",
            "low_confidence_tier",
            "inside_eez",
            "bathymetry_shallow_eez_hotspot"
          ]
        }
      },
      "geometry": {
        "type": "Point",
        "coordinates": [
          14.3,
          55.15
        ]
      }
    },
    {
      "type": "Feature",
      "properties": {
        "event_id": "8739bf95e81d3cfb16d20b1d81abf69f3d2f875022e4947daf44aa3ecb1bbcd2",
        "timestamp_utc": "2025-12-06T05:00:00Z",
        "matched_flag": true,
        "lat": 55.24,
        "lon": 14.33,
        "confidence_proxy": null,
        "confidence_tier": "low",
        "distance_to_coast_km": 19.23,
        "context_layers": {
          "EEZ": {
            "dataset": "World_EEZ_20231025_LR",
            "version": "v12",
            "enrichments": [
              {
                "id": "5694",
                "label": "Swedish Exclusive Economic Zone"
              }
            ]
          },
          "MPA": {
            "dataset": "WDPA_WDOECM_APR2026",
            "version": "v1.6",
            "enrichments": []
          },
          "Bathymetry": {
            "dataset": "gebco_2025_sub_ice_topo",
            "version": "v2.7",
            "enrichments": [
              {
                "value": "-45"
              }
            ]
          }
        },
        "scoring": {
          "triage_score": 0.73,
          "uncertainty_score": 0.38,
          "reason_codes": [
            "matched_to_public_ais",
            "missing_confidence_proxy",
            "low_confidence_tier",
            "inside_eez",
            "bathymetry_shallow_eez_hotspot",
            "bathymetry_cargo_anomaly_zone"
          ]
        }
      },
      "geometry": {
        "type": "Point",
        "coordinates": [
          14.33,
          55.24
        ]
      }
    },
    {
      "type": "Feature",
      "properties": {
        "event_id": "8c07b71ef69301c62f7a94e367c7b627292329d5d4c9633195c064fc8d4e0081",
        "timestamp_utc": "2025-12-06T05:00:00Z",
        "matched_flag": true,
        "lat": 55.21,
        "lon": 14.41,
        "confidence_proxy": null,
        "confidence_tier": "low",
        "distance_to_coast_km": 18.68,
        "context_layers": {
          "EEZ": {
            "dataset": "World_EEZ_20231025_LR",
            "version": "v12",
            "enrichments": [
              {
                "id": "5674",
                "label": "Danish Exclusive Economic Zone"
              }
            ]
          },
          "MPA": {
            "dataset": "WDPA_WDOECM_APR2026",
            "version": "v1.6",
            "enrichments": []
          },
          "Bathymetry": {
            "dataset": "gebco_2025_sub_ice_topo",
            "version": "v2.7",
            "enrichments": [
              {
                "value": "-43"
              }
            ]
          }
        },
        "scoring": {
          "triage_score": 0.73,
          "uncertainty_score": 0.38,
          "reason_codes": [
            "matched_to_public_ais",
            "missing_confidence_proxy",
            "low_confidence_tier",
            "inside_eez",
            "bathymetry_shallow_eez_hotspot",
            "bathymetry_cargo_anomaly_zone"
          ]
        }
      },
      "geometry": {
        "type": "Point",
        "coordinates": [
          14.41,
          55.21
        ]
      }
    }
  ]
}