{
  "features": [
    {
      "geometry": {
        "coordinates": [
          [
            [
              14.229075885923933,
              55.22858700883818
            ],
            [
              14.234427707653547,
              55.1517927916441
            ],
            [
              14.36654795027871,
              55.12019074929979
            ],
            [
              14.493564607756047,
              55.16533752959791
            ],
            [
              14.488532479584647,
              55.24215412472524
            ],
            [
              14.356163739505739,
              55.27380174764254
            ],
            [
              14.229075885923933,
              55.22858700883818
            ],
            [
              14.229075885923933,
              55.22858700883818
            ]
          ]
        ],
        "type": "Polygon"
      },
      "properties": {
        "cell_id": "851f2a47fffffff",
        "count_high_score_unmatched": 0,
        "count_total": 2,
        "count_unmatched": 0,
        "mean_score": 0.77,
        "mean_uncertainty": 0.38,
        "pct_near_coast": 0,
        "recurrence_count": 0,
        "time_bin": "2025-12-04 16:00:00",
        "time_bins_total": 3,
        "time_bins_with_unmatched": 0
      },
      "type": "Feature"
    },
    {
      "geometry": {
        "coordinates": [
          [
            [
              14.488532479584647,
              55.24215412472524
            ],
            [
              14.493564607756047,
              55.16533752959791
            ],
            [
              14.625681453985813,
              55.13345312938518
            ],
            [
              14.753011796836006,
              55.1783391490446
            ],
            [
              14.748300339239407,
              55.25517731448213
            ],
            [
              14.615937617208752,
              55.28710807688227
            ],
            [
              14.488532479584647,
              55.24215412472524
            ],
            [
              14.488532479584647,
              55.24215412472524
            ]
          ]
        ],
        "type": "Polygon"
      },
      "properties": {
        "cell_id": "851f2a73fffffff",
        "count_high_score_unmatched": 0,
        "count_total": 1,
        "count_unmatched": 0,
        "mean_score": 0.83,
        "mean_uncertainty": 0.38,
        "pct_near_coast": 100,
        "recurrence_count": 0,
        "time_bin": "2025-12-04 16:00:00",
        "time_bins_total": 1,
        "time_bins_with_unmatched": 0
      },
      "type": "Feature"
    },
    {
      "geometry": {
        "coordinates": [
          [
            [
              14.229075885923933,
              55.22858700883818
            ],
            [
              14.234427707653547,
              55.1517927916441
            ],
            [
              14.36654795027871,
              55.12019074929979
            ],
            [
              14.493564607756047,
              55.16533752959791
            ],
            [
              14.488532479584647,
              55.24215412472524
            ],
            [
              14.356163739505739,
              55.27380174764254
            ],
            [
              14.229075885923933,
              55.22858700883818
            ],
            [
              14.229075885923933,
              55.22858700883818
            ]
          ]
        ],
        "type": "Polygon"
      },
      "properties": {
        "cell_id": "851f2a47fffffff",
        "count_high_score_unmatched": 0,
        "count_total": 4,
        "count_unmatched": 0,
        "mean_score": 0.63,
        "mean_uncertainty": 0.38,
        "pct_near_coast": 0,
        "recurrence_count": 0,
        "time_bin": "2025-12-06 05:00:00",
        "time_bins_total": 3,
        "time_bins_with_unmatched": 0
      },
      "type": "Feature"
    },
    {
      "geometry": {
        "coordinates": [
          [
            [
              13.969940620510469,
              55.21447768340729
            ],
            [
              13.975611122422459,
              55.13770664823632
            ],
            [
              14.10772926204822,
              55.106386504125815
            ],
            [
              14.234427707653547,
              55.1517927916441
            ],
            [
              14.229075885923933,
              55.22858700883818
            ],
            [
              14.096706667784831,
              55.259951941569526
            ],
            [
              13.969940620510469,
              55.21447768340729
            ],
            [
              13.969940620510469,
              55.21447768340729
            ]
          ]
        ],
        "type": "Polygon"
      },
      "properties": {
        "cell_id": "851f2a43fffffff",
        "count_high_score_unmatched": 0,
        "count_total": 1,
        "count_unmatched": 0,
        "mean_score": 0.73,
        "mean_uncertainty": 0.38,
        "pct_near_coast": 0,
        "recurrence_count": 1,
        "time_bin": "2025-12-06 05:00:00",
        "time_bins_total": 3,
        "time_bins_with_unmatched": 1
      },
      "type": "Feature"
    },
    {
      "geometry": {
        "coordinates": [
          [
            [
              13.849235358917557,
              55.09204213048802
            ],
            [
              13.855043137549723,
              55.01512544117016
            ],
            [
              13.986909955699533,
              54.98384941083134
            ],
            [
              14.113220043106724,
              55.029446140322776
            ],
            [
              14.10772926204822,
              55.106386504125815
            ],
            [
              13.975611122422459,
              55.13770664823632
            ],
            [
              13.849235358917557,
              55.09204213048802
            ],
            [
              13.849235358917557,
              55.09204213048802
            ]
          ]
        ],
        "type": "Polygon"
      },
      "properties": {
        "cell_id": "851f2a4bfffffff",
        "count_high_score_unmatched": 0,
        "count_total": 1,
        "count_unmatched": 0,
        "mean_score": 0.73,
        "mean_uncertainty": 0.38,
        "pct_near_coast": 0,
        "recurrence_count": 0,
        "time_bin": "2025-12-06 05:00:00",
        "time_bins_total": 1,
        "time_bins_with_unmatched": 0
      },
      "type": "Feature"
    },
    {
      "geometry": {
        "coordinates": [
          [
            [
              13.969940620510469,
              55.21447768340729
            ],
            [
              13.975611122422459,
              55.13770664823632
            ],
            [
              14.10772926204822,
              55.106386504125815
            ],
            [
              14.234427707653547,
              55.1517927916441
            ],
            [
              14.229075885923933,
              55.22858700883818
            ],
            [
              14.096706667784831,
              55.259951941569526
            ],
            [
              13.969940620510469,
              55.21447768340729
            ],
            [
              13.969940620510469,
              55.21447768340729
            ]
          ]
        ],
        "type": "Polygon"
      },
      "properties": {
        "cell_id": "851f2a43fffffff",
        "count_high_score_unmatched": 0,
        "count_total": 4,
        "count_unmatched": 1,
        "mean_score": 0.59,
        "mean_uncertainty": 0.44,
        "pct_near_coast": 0,
        "recurrence_count": 1,
        "time_bin": "2025-12-04 16:00:00",
        "time_bins_total": 3,
        "time_bins_with_unmatched": 1
      },
      "type": "Feature"
    },
    {
      "geometry": {
        "coordinates": [
          [
            [
              14.229075885923933,
              55.22858700883818
            ],
            [
              14.234427707653547,
              55.1517927916441
            ],
            [
              14.36654795027871,
              55.12019074929979
            ],
            [
              14.493564607756047,
              55.16533752959791
            ],
            [
              14.488532479584647,
              55.24215412472524
            ],
            [
              14.356163739505739,
              55.27380174764254
            ],
            [
              14.229075885923933,
              55.22858700883818
            ],
            [
              14.229075885923933,
              55.22858700883818
            ]
          ]
        ],
        "type": "Polygon"
      },
      "properties": {
        "cell_id": "851f2a47fffffff",
        "count_high_score_unmatched": 0,
        "count_total": 2,
        "count_unmatched": 0,
        "mean_score": 0.73,
        "mean_uncertainty": 0.38,
        "pct_near_coast": 0,
        "recurrence_count": 0,
        "time_bin": "2025-12-01 05:00:00",
        "time_bins_total": 3,
        "time_bins_with_unmatched": 0
      },
      "type": "Feature"
    },
    {
      "geometry": {
        "coordinates": [
          [
            [
              13.969940620510469,
              55.21447768340729
            ],
            [
              13.975611122422459,
              55.13770664823632
            ],
            [
              14.10772926204822,
              55.106386504125815
            ],
            [
              14.234427707653547,
              55.1517927916441
            ],
            [
              14.229075885923933,
              55.22858700883818
            ],
            [
              14.096706667784831,
              55.259951941569526
            ],
            [
              13.969940620510469,
              55.21447768340729
            ],
            [
              13.969940620510469,
              55.21447768340729
            ]
          ]
        ],
        "type": "Polygon"
      },
      "properties": {
        "cell_id": "851f2a43fffffff",
        "count_high_score_unmatched": 0,
        "count_total": 2,
        "count_unmatched": 0,
        "mean_score": 0.73,
        "mean_uncertainty": 0.38,
        "pct_near_coast": 0,
        "recurrence_count": 1,
        "time_bin": "2025-12-01 05:00:00",
        "time_bins_total": 3,
        "time_bins_with_unmatched": 1
      },
      "type": "Feature"
    },
    {
      "geometry": {
        "coordinates": [
          [
            [
              14.10772926204822,
              55.106386504125815
            ],
            [
              14.113220043106724,
              55.029446140322776
            ],
            [
              14.245091511718323,
              54.99788900786158
            ],
            [
              14.37172070932158,
              55.0432275145601
            ],
            [
              14.36654795027871,
              55.12019074929979
            ],
            [
              14.234427707653547,
              55.1517927916441
            ],
            [
              14.10772926204822,
              55.106386504125815
            ],
            [
              14.10772926204822,
              55.106386504125815
            ]
          ]
        ],
        "type": "Polygon"
      },
      "properties": {
        "cell_id": "851f2a4ffffffff",
        "count_high_score_unmatched": 0,
        "count_total": 1,
        "count_unmatched": 0,
        "mean_score": 0.53,
        "mean_uncertainty": 0.38,
        "pct_near_coast": 0,
        "recurrence_count": 0,
        "time_bin": "2025-12-01 05:00:00",
        "time_bins_total": 1,
        "time_bins_with_unmatched": 0
      },
      "type": "Feature"
    }
  ],
  "type": "FeatureCollection"
}